{
  "type": "FeatureCollection",
  "features": [
    {
      "type": "Feature",
      "geometry": {
        "type": "Polygon",
        "coordinates": [
          [
            [
              67.79246060831099,
              26.740581272060602
            ],
            [
              67.7924488885905,
              26.740315710714228
            ],
            [
              67.79240823457401,
              26.74005245950157
            ],
            [
              67.79233903797815,
              26.73979405365802
            ],
            [
              67.79224196538712,
              26.739542981738655
            ],
            [
              67.79211795182603,
              26.739301661653386
            ],
            [
              67.79196819174999,
              26.739072417383174
            ],
            [
              67.79179412753541,
              26.738857456601185
            ],
            [
              67.7915974355853,
              26.738658849414545
            ],
            [
              67.79138001018171,
              26.73847850843132
            ],
            [
              67.79114394524177,
              26.738318170344368
            ],
            [
              67.79089151415228,
              26.7381793792095
            ],
            [
              67.7906251478777,
              26.738063471578734
            ],
            [
              67.79034741155179,
              26.73797156363173
            ],
            [
              67.7900609797787,
              26.737904540429245
            ],
            [
              67.78976861088059,
              26.73786304739191
            ],
            [
              67.78947312034022,
              26.737847484086373
            ],
            [
              67.78917735369359,
              26.737858000378605
            ],
            [
              67.78888415913353,
              26.73789449499118
            ],
            [
              67.78859636008771,
              26.737956616478748
            ],
            [
              67.78831672803516,
              26.738043766611842
            ],
            [
              67.78804795582235,
              26.738155106136894
            ],
            [
              67.78779263173591,
              26.738289562856803
            ],
            [
              67.7875532145813,
              26.738445841954306
            ],
            [
              67.78733201000708,
              26.73862243845895
            ],
            [
              67.78713114830309,
              26.73881765173757
            ],
            [
              67.78695256388572,
              26.739029601868975
            ],
            [
              67.78679797666804,
              26.73925624774516
            ],
            [
              67.7866688754944,
              26.73949540672496
            ],
            [
              67.78656650379867,
              26.73974477565084
            ],
            [
              67.78649184762477,
              26.7400019530268
            ],
            [
              67.78644562612483,
              26.74026446214359
            ],
            [
              67.78642828462672,
              26.74052977492891
            ],
            [
              67.78643999033804,
              26.740795336292816
            ],
            [
              67.78648063072808,
              26.74105858873398
            ],
            [
              67.78654981460394,
              26.741316996969815
            ],
            [
              67.78664687587025,
              26.741568072353306
            ],
            [
              67.78677087993702,
              26.741809396841393
            ],
            [
              67.78692063271411,
              26.74203864628395
            ],
            [
              67.7870946921055,
              26.742253612809044
            ],
            [
              67.78729138189361,
              26.74245222608881
            ],
            [
              67.78750880787942,
              26.742632573281053
            ],
            [
              67.78774487612348,
              26.7427929174543
            ],
            [
              67.78799731311197,
              26.74293171431884
            ],
            [
              67.78826368765377,
              26.743047627102484
            ],
            [
              67.78854143429736,
              26.743139539427524
            ],
            [
              67.78882787804216,
              26.74320656606498
            ],
            [
              67.78912026010589,
              26.74324806146221
            ],
            [
              67.78941576449986,
              26.743263625961873
            ],
            [
              67.78971154515567,
              26.743253109652123
            ],
            [
              67.79000475334217,
              26.74321661381103
            ],
            [
              67.79029256510799,
              26.743154489931182
            ],
            [
              67.79057220848527,
              26.74306733633398
            ],
            [
              67.79084099019238,
              26.74295599240609
            ],
            [
              67.7910963215778,
              26.742821530513833
            ],
            [
              67.79133574355559,
              26.742665245673237
            ],
            [
              67.79155695029182,
              26.742488643075465
            ],
            [
              67.79175781141356,
              26.742293423587828
            ],
            [
              67.79193639252682,
              26.742081467370127
            ],
            [
              67.79209097384549,
              26.741854815764263
            ],
            [
              67.79222006675194,
              26.74161565163159
            ],
            [
              67.79232242812996,
              26.741366278327664
            ],
            [
              67.79239707233216,
              26.741109097516734
            ],
            [
              67.79244328066649,
              26.740846586040053
            ],
            [
              67.79246060831099,
              26.740581272060602
            ]
          ]
        ]
      },
      "properties": {
        "cluster_id": "Village_Cluster_01",
        "rank": 1,
        "Rank": 1,
        "estimated_population": 16571.0,
        "population": 16571.0,
        "trapped_nodes": 1,
        "radius_m": 50.0,
        "dist_to_hub_km": 2.81,
        "nearest_hub": "Relief_Hub_55",
        "critical_access_obstacles": "Flooded residential access road on Corridor 3-5 (100% flooded); Flooded residential access road on Road 4-4 (100% flooded); Flooded residential access road on Road 4-5 (100% flooded)",
        "has_bridge_cut": false,
        "has_highway_cut": false,
        "center_lon": 67.789444,
        "center_lat": 26.740556
      }
    },
    {
      "type": "Feature",
      "geometry": {
        "type": "Polygon",
        "coordinates": [
          [
            [
              67.79246011024523,
              26.72169236641705
            ],
            [
              67.79244839062662,
              26.72142680444447
            ],
            [
              67.79240774150756,
              26.721163552772754
            ],
            [
              67.79233855455726,
              26.720905146641734
            ],
            [
              67.79224149626683,
              26.720654074609286
            ],
            [
              67.79211750152356,
              26.72041275458647
            ],
            [
              67.79196776460114,
              26.72018351055369
            ],
            [
              67.79179372765297,
              26.719968550181864
            ],
            [
              67.79159706681935,
              26.71976994357429
            ],
            [
              67.79137967608267,
              26.719589603333485
            ],
            [
              67.7911436490262,
              26.71942926614527
            ],
            [
              67.79089125867193,
              26.719290476056834
            ],
            [
              67.79062493559213,
              26.719174569610193
            ],
            [
              67.79034724450473,
              26.71908266297367
            ],
            [
              67.79006085957826,
              26.719015641195437
            ],
            [
              67.78976853868396,
              26.718974149682456
            ],
            [
              67.7894730968425,
              26.718958587986716
            ],
            [
              67.78917737912101,
              26.71896910595868
            ],
            [
              67.78888423324138,
              26.71900560230476
            ],
            [
              67.78859648216266,
              26.719067725562873
            ],
            [
              67.7883168969021,
              26.71915487748648
            ],
            [
              67.78804816985567,
              26.719266218804712
            ],
            [
              67.7877928888752,
              26.719400677303152
            ],
            [
              67.78755351235107,
              26.719556958147344
            ],
            [
              67.78733234554065,
              26.71973355634994
            ],
            [
              67.78713151837009,
              26.719928771261355
            ],
            [
              67.7869529649232,
              26.720140722944596
            ],
            [
              67.78679840481476,
              26.72036737027665
            ],
            [
              67.7866693266279,
              26.720606530602247
            ],
            [
              67.78656697357505,
              26.720855900750855
            ],
            [
              67.78649233152039,
              26.721113079214646
            ],
            [
              67.78644611947995,
              26.72137558927385
            ],
            [
              67.78642878269028,
              26.72164090284707
            ],
            [
              67.78644048831343,
              26.721906464836778
            ],
            [
              67.7864811238194,
              26.722169717735614
            ],
            [
              67.78655029806207,
              26.7224281262566
            ],
            [
              67.78664734503867,
              26.722679201750015
            ],
            [
              67.78677133029673,
              26.72292052617179
            ],
            [
              67.78692105992704,
              26.723149775372484
            ],
            [
              67.78709509205646,
              26.72336474148256
            ],
            [
              67.78729175072985,
              26.723563354178218
            ],
            [
              67.78750914204784,
              26.723743700622972
            ],
            [
              67.78774517240485,
              26.7239040438926
            ],
            [
              67.78799756865199,
              26.724042839706176
            ],
            [
              67.78826389999058,
              26.724158751301704
            ],
            [
              67.78854160138533,
              26.724250662312972
            ],
            [
              67.78882799827154,
              26.7243176875237
            ],
            [
              67.78912033231839,
              26.724359181395013
            ],
            [
              67.7894157879998,
              26.72437474428429
            ],
            [
              67.7897115197167,
              26.724364226295197
            ],
            [
              67.79000467920946,
              26.724327728721995
            ],
            [
              67.79029244299582,
              26.724265603073917
            ],
            [
              67.79057203957021,
              26.72417844768935
            ],
            [
              67.79084077610183,
              26.72406710197215
            ],
            [
              67.7910960643744,
              26.723932638305804
            ],
            [
              67.79133544571731,
              26.723776351723355
            ],
            [
              67.79155661468796,
              26.723599747432672
            ],
            [
              67.79175744127717,
              26.723404526317317
            ],
            [
              67.79193599142354,
              26.723192568552676
            ],
            [
              67.79209054563911,
              26.722965915495468
            ],
            [
              67.79221961556716,
              26.722726750020986
            ],
            [
              67.7923219583127,
              26.72247737549763
            ],
            [
              67.79239658840761,
              26.722220193601345
            ],
            [
              67.7924427872955,
              26.72195768118381
            ],
            [
              67.79246011024523,
              26.72169236641705
            ]
          ]
        ]
      },
      "properties": {
        "cluster_id": "Village_Cluster_02",
        "rank": 1,
        "Rank": 1,
        "estimated_population": 1694.3,
        "population": 1694.3,
        "trapped_nodes": 1,
        "radius_m": 50.0,
        "dist_to_hub_km": 4.59,
        "nearest_hub": "Relief_Hub_55",
        "critical_access_obstacles": "Flooded residential access road on Corridor 2-5 (100% flooded); Flooded residential access road on Road 3-5 (100% flooded); Flooded residential access road on Corridor 3-5 (100% flooded)",
        "has_bridge_cut": false,
        "has_highway_cut": false,
        "center_lon": 67.789444,
        "center_lat": 26.721667
      }
    },
    {
      "type": "Feature",
      "geometry": {
        "type": "Polygon",
        "coordinates": [
          [
            [
              67.8113495181057,
              26.740580870350016
            ],
            [
              67.81133775443081,
              26.74031530909998
            ],
            [
              67.8112970566828,
              26.740052061851326
            ],
            [
              67.81122781699942,
              26.739793663801112
            ],
            [
              67.81113070237969,
              26.739542603429253
            ],
            [
              67.81100664825343,
              26.739301298534357
            ],
            [
              67.81085684946623,
              26.739072072951
            ],
            [
              67.81068274876722,
              26.7388571341723
            ],
            [
              67.81048602291055,
              26.73865855209347
            ],
            [
              67.81026856650466,
              26.738478239080738
            ],
            [
              67.81003247376505,
              26.738317931557592
            ],
            [
              67.8097800183461,
              26.738179173285555
            ],
            [
              67.80951363144639,
              26.7380633005002
            ],
            [
              67.8092358783982,
              26.737971429045704
            ],
            [
              67.80894943396656,
              26.737904443631454
            ],
            [
              67.8086570565955,
              26.737862989314305
            ],
            [
              67.8083615618493,
              26.73784746528811
            ],
            [
              67.80806579530446,
              26.737858021040708
            ],
            [
              67.80777260515278,
              26.737894554914785
            ],
            [
              67.8074848147796,
              26.73795671508699
            ],
            [
              67.80720519558047,
              26.73804390295542
            ],
            [
              67.80693644027816,
              26.738155278903225
            ],
            [
              67.80668113699666,
              26.738289770382593
            ],
            [
              67.8064417443411,
              26.7384460822416
            ],
            [
              67.80622056772437,
              26.738622709194296
            ],
            [
              67.8060197371672,
              26.738817950314314
            ],
            [
              67.8058411867862,
              26.739029925412325
            ],
            [
              67.80568663616684,
              26.739256593139864
            ],
            [
              67.80555757380112,
              26.739495770645227
            ],
            [
              67.80545524274937,
              26.739745154592427
            ],
            [
              67.80538062866417,
              26.740002343340677
            ],
            [
              67.80533445029242,
              26.740264860071086
            ],
            [
              67.80531715254666,
              26.740530176637915
            ],
            [
              67.80532890221319,
              26.740795737914677
            ],
            [
              67.80536958633799,
              26.741058986400738
            ],
            [
              67.80543881330688,
              26.741317386851467
            ],
            [
              67.80553591660941,
              26.741568450694725
            ],
            [
              67.80565996125071,
              26.741809759998482
            ],
            [
              67.80580975274967,
              26.742038990758754
            ],
            [
              67.80598384863723,
              26.74225393528345
            ],
            [
              67.80618057234418,
              26.742452523456556
            ],
            [
              67.80639802934465,
              26.742632842677647
            ],
            [
              67.80663412540034,
              26.74279315628463
            ],
            [
              67.80688658672939,
              26.742931920282214
            ],
            [
              67.80715298190611,
              26.74304779821478
            ],
            [
              67.80743074528016,
              26.743139674040354
            ],
            [
              67.80771720168966,
              26.74320666288155
            ],
            [
              67.8080095922303,
              26.74324811954985
            ],
            [
              67.8083051008317,
              26.74326364476101
            ],
            [
              67.80860088138492,
              26.743253088981696
            ],
            [
              67.80889408515979,
              26.743216553870216
            ],
            [
              67.80918188824748,
              26.743154391297484
            ],
            [
              67.8094615187638,
              26.743067199957654
            ],
            [
              67.80973028355106,
              26.74295581960098
            ],
            [
              67.80998559412085,
              26.742821322944707
            ],
            [
              67.81022499158783,
              26.74266500533971
            ],
            [
              67.81044617035428,
              26.742488372292733
            ],
            [
              67.81064700031685,
              26.742293124964363
            ],
            [
              67.8108255473818,
              26.742081143782507
            ],
            [
              67.81098009209106,
              26.741854470329415
            ],
            [
              67.81110914617975,
              26.741615287676844
            ],
            [
              67.81121146690566,
              26.741365899358577
            ],
            [
              67.811286069013,
              26.741108707183383
            ],
            [
              67.81133223421516,
              26.74084618810182
            ],
            [
              67.8113495181057,
              26.740580870350016
            ]
          ]
        ]
      },
      "properties": {
        "cluster_id": "Village_Cluster_03",
        "rank": 1,
        "Rank": 1,
        "estimated_population": 227.0,
        "population": 227.0,
        "trapped_nodes": 1,
        "radius_m": 50.0,
        "dist_to_hub_km": 4.3,
        "nearest_hub": "Relief_Hub_55",
        "critical_access_obstacles": "Flooded residential access road on Corridor 3-6 (100% flooded); Flooded residential access road on Road 4-5 (100% flooded); Flooded residential access road on Road 4-6 (100% flooded)",
        "has_bridge_cut": false,
        "has_highway_cut": false,
        "center_lon": 67.808333,
        "center_lat": 26.740556
      }
    },
    {
      "type": "Feature",
      "geometry": {
        "type": "Polygon",
        "coordinates": [
          [
            [
              67.81134852245908,
              26.702803059583612
            ],
            [
              67.81133675905829,
              26.702537497078993
            ],
            [
              67.81129607117002,
              26.702274248905038
            ],
            [
              67.81122685083668,
              26.702015850267788
            ],
            [
              67.8111297648706,
              26.701764789652863
            ],
            [
              67.81100574842533,
              26.70152348486131
            ],
            [
              67.81085599598332,
              26.701294259726804
            ],
            [
              67.81068194984715,
              26.701079321738284
            ],
            [
              67.81048528624537,
              26.700880740783493
            ],
            [
              67.81026789918685,
              26.700700429217967
            ],
            [
              67.81003188221926,
              26.70054012345142
            ],
            [
              67.80977950826733,
              26.700401367228583
            ],
            [
              67.80951320774525,
              26.700285496765428
            ],
            [
              67.80923554515371,
              26.70019362788388
            ],
            [
              67.80894919438686,
              26.70012664526866
            ],
            [
              67.80865691298703,
              26.70008519394972
            ],
            [
              67.80836151559465,
              26.700069673092095
            ],
            [
              67.80806584684902,
              26.700080232153116
            ],
            [
              67.8077727540005,
              26.7001167694436
            ],
            [
              67.80748505949768,
              26.700178933107242
            ],
            [
              67.80720553381323,
              26.700266124508477
            ],
            [
              67.80693686876964,
              26.700377503996307
            ],
            [
              67.80668165162184,
              26.70051199898875
            ],
            [
              67.80644234014574,
              26.700668314299882
            ],
            [
              67.80622123897253,
              26.700844944610406
            ],
            [
              67.8060204773964,
              26.70104018896145
            ],
            [
              67.80584198886963,
              26.701252167132434
            ],
            [
              67.80568749238189,
              26.701478837745135
            ],
            [
              67.8055584759037,
              26.70171801791997
            ],
            [
              67.80545618205319,
              26.701967404295104
            ],
            [
              67.80538159612442,
              26.702224595206264
            ],
            [
              67.80533543659274,
              26.702487113813692
            ],
            [
              67.80531814818893,
              26.702752431953492
            ],
            [
              67.80532989760886,
              26.70301799448403
            ],
            [
              67.80537057190054,
              26.703281243892608
            ],
            [
              67.80543977954407,
              26.703539644925748
            ],
            [
              67.80553685421481,
              26.70379070900577
            ],
            [
              67.80566086119325,
              26.70403201819845
            ],
            [
              67.80581060636075,
              26.70426124850098
            ],
            [
              67.8059846476943,
              26.704476192225822
            ],
            [
              67.80618130914989,
              26.704674779264792
            ],
            [
              67.80639869680115,
              26.704855097028542
            ],
            [
              67.80663471707763,
              26.705015408869155
            ],
            [
              67.80688709692744,
              26.70515417080848
            ],
            [
              67.80715340570971,
              26.705270046410877
            ],
            [
              67.80743107860636,
              26.705361919656905
            ],
            [
              67.80771744132717,
              26.705428905694127
            ],
            [
              67.80800973587046,
              26.70547035936109
            ],
            [
              67.8083051470907,
              26.705485881402513
            ],
            [
              67.80860082981721,
              26.705475322315586
            ],
            [
              67.80889393626232,
              26.705438783790477
            ],
            [
              67.80918164345492,
              26.705376617730934
            ],
            [
              67.80946118043475,
              26.705289422864617
            ],
            [
              67.80972985494518,
              26.705178038975653
            ],
            [
              67.80998507936746,
              26.705043538815193
            ],
            [
              67.81022439564619,
              26.70488721776773
            ],
            [
              67.81044549896558,
              26.70471058137303
            ],
            [
              67.81064625994897,
              26.704515330823764
            ],
            [
              67.81082474516684,
              26.704303346578712
            ],
            [
              67.81097923575673,
              26.704076670249513
            ],
            [
              67.81110824397472,
              26.703837484935445
            ],
            [
              67.81121052752013,
              26.70358809419583
            ],
            [
              67.81128510149492,
              26.70333089986266
            ],
            [
              67.81133124788313,
              26.703068378907222
            ],
            [
              67.81134852245908,
              26.702803059583612
            ]
          ]
        ]
      },
      "properties": {
        "cluster_id": "Village_Cluster_04",
        "rank": 1,
        "Rank": 1,
        "estimated_population": 214.1,
        "population": 214.1,
        "trapped_nodes": 1,
        "radius_m": 50.0,
        "dist_to_hub_km": 7.32,
        "nearest_hub": "Relief_Hub_55",
        "critical_access_obstacles": "Submerged bridge on Road 2-6 (secondary, 100% flooded); Flooded secondary artery on Road 2-5 (100% flooded); Flooded residential access road on Corridor 2-6 (100% flooded)",
        "has_bridge_cut": true,
        "has_highway_cut": true,
        "center_lon": 67.808333,
        "center_lat": 26.702778
      }
    },
    {
      "type": "Feature",
      "geometry": {
        "type": "Polygon",
        "coordinates": [
          [
            [
              67.83023743191791,
              26.702802658393967
            ],
            [
              67.83022562463589,
              26.702537096012133
            ],
            [
              67.83018489309183,
              26.70227385182334
            ],
            [
              67.83011562974845,
              26.702015460995128
            ],
            [
              67.83001850183224,
              26.701764411937784
            ],
            [
              67.82989444490066,
              26.701523122340944
            ],
            [
              67.8297446538259,
              26.701293915891867
            ],
            [
              67.82957057128246,
              26.701078999899472
            ],
            [
              67.82937387384933,
              26.700880444039633
            ],
            [
              67.82915645586105,
              26.700700160426177
            ],
            [
              67.82892041116294,
              26.700539885199657
            ],
            [
              67.82866801294665,
              26.7004011618107
            ],
            [
              67.82840169185987,
              26.700285326159133
            ],
            [
              67.82812401260121,
              26.70019349373172
            ],
            [
              67.8278376492252,
              26.700126548862197
            ],
            [
              67.82754535939554,
              26.700085136217123
            ],
            [
              67.82724995783377,
              26.700069654589207
            ],
            [
              67.8269542892193,
              26.700080253058115
            ],
            [
              67.82666120080128,
              26.700116829555267
            ],
            [
              67.82637351498568,
              26.700179031846922
            ],
            [
              67.82609400216153,
              26.700266260925602
            ],
            [
              67.82582535402763,
              26.700377676777578
            ],
            [
              67.82557015767618,
              26.700512206470734
            ],
            [
              67.82533087068298,
              26.70066855448503
            ],
            [
              67.82510979744355,
              26.70084521518627
            ],
            [
              67.82490906698331,
              26.701040487322906
            ],
            [
              67.824730612455,
              26.701252490406763
            ],
            [
              67.82457615252106,
              26.701479182819668
            ],
            [
              67.82444717480016,
              26.701718381472013
            ],
            [
              67.82434492153727,
              26.70196778282394
            ],
            [
              67.82427037763571,
              26.702224985066845
            ],
            [
              67.8242242611662,
              26.702487511251714
            ],
            [
              67.82420701644479,
              26.702752833141577
            ],
            [
              67.82421880974677,
              26.703018395558516
            ],
            [
              67.82425952769749,
              26.70328164099081
            ],
            [
              67.82432877835656,
              26.70354003422316
            ],
            [
              67.82442589498496,
              26.703791086752872
            ],
            [
              67.82454994245903,
              26.704032380756864
            ],
            [
              67.82469972627,
              26.704261592378522
            ],
            [
              67.82487380402254,
              26.70447651411014
            ],
            [
              67.82507049932174,
              26.704675076055302
            ],
            [
              67.82528791791512,
              26.70485536586631
            ],
            [
              67.82552396593407,
              26.705015647164455
            ],
            [
              67.82577637005932,
              26.705154376265778
            ],
            [
              67.82604269941608,
              26.70527021705091
            ],
            [
              67.82632038898798,
              26.705362053835835
            ],
            [
              67.82660676432411,
              26.705429002119345
            ],
            [
              67.82689906730121,
              26.705470417103687
            ],
            [
              67.82719448269243,
              26.705485899906247
            ],
            [
              67.82749016528692,
              26.705475301402238
            ],
            [
              67.82778326729832,
              26.70543872366157
            ],
            [
              67.82807096579822,
              26.705376518965785
            ],
            [
              67.82835048991016,
              26.705289286414736
            ],
            [
              67.8286191475016,
              26.70517786615561
            ],
            [
              67.82887435111682,
              26.70504333128988
            ],
            [
              67.82911364290094,
              26.704886977536344
            ],
            [
              67.82933471827427,
              26.70471031074979
            ],
            [
              67.82953544812942,
              26.7045150324156
            ],
            [
              67.8297138993369,
              26.704303023260124
            ],
            [
              67.82986835336187,
              26.704076325134857
            ],
            [
              67.8299973228128,
              26.703837121348943
            ],
            [
              67.83009956576245,
              26.703587715639507
            ],
            [
              67.83017409770387,
              26.70333050998261
            ],
            [
              67.83022020102598,
              26.703067981458474
            ],
            [
              67.83023743191791,
              26.702802658393967
            ]
          ]
        ]
      },
      "properties": {
        "cluster_id": "Village_Cluster_05",
        "rank": 1,
        "Rank": 1,
        "estimated_population": 184.6,
        "population": 184.6,
        "trapped_nodes": 1,
        "radius_m": 50.0,
        "dist_to_hub_km": 8.44,
        "nearest_hub": "Relief_Hub_55",
        "critical_access_obstacles": "Submerged bridge on Road 2-6 (secondary, 100% flooded); Submerged bridge on Road 2-7 (secondary, 82% flooded); Flooded secondary artery on Corridor 1-7 (100% flooded)",
        "has_bridge_cut": true,
        "has_highway_cut": true,
        "center_lon": 67.827222,
        "center_lat": 26.702778
      }
    },
    {
      "type": "Feature",
      "geometry": {
        "type": "Polygon",
        "coordinates": [
          [
            [
              67.83023992474234,
              26.79724718397953
            ],
            [
              67.8302281165831,
              26.796981624743218
            ],
            [
              67.8301873601638,
              26.796718382889438
            ],
            [
              67.83011804818777,
              26.796459993563104
            ],
            [
              67.8300208483507,
              26.796208945159897
            ],
            [
              67.82989669690346,
              26.795967655362926
            ],
            [
              67.82974678962916,
              26.795738447861105
            ],
            [
              67.82957257032183,
              26.795523529973156
            ],
            [
              67.82937571687793,
              26.79532497139286
            ],
            [
              67.82915812513455,
              26.795144684259895
            ],
            [
              67.82892189061033,
              26.79498440474832
            ],
            [
              67.82866928832478,
              26.794845676349706
            ],
            [
              67.82840275089046,
              26.79472983501178
            ],
            [
              67.82812484508888,
              26.79463799627579
            ],
            [
              67.82783824715561,
              26.794571044535985
            ],
            [
              67.82754571701236,
              26.794529624524912
            ],
            [
              67.82725007169408,
              26.794514135106123
            ],
            [
              67.82695415822675,
              26.79452472543424
            ],
            [
              67.82666082621655,
              26.79456129351913
            ],
            [
              67.82637290041441,
              26.794623487208167
            ],
            [
              67.82609315351971,
              26.79471070757689
            ],
            [
              67.82582427948468,
              26.79482211469567
            ],
            [
              67.82556886757641,
              26.794956635716776
            ],
            [
              67.82532937744611,
              26.795112975204027
            ],
            [
              67.82510811544537,
              26.79528962760566
            ],
            [
              67.8249072124173,
              26.79548489175045
            ],
            [
              67.82472860317664,
              26.795696887227532
            ],
            [
              67.82457400787607,
              26.79592357249235
            ],
            [
              67.82444491543832,
              26.796162764524468
            ],
            [
              67.82434256921383,
              26.79641215984806
            ],
            [
              67.82426795500184,
              26.796669356712837
            ],
            [
              67.82422179155111,
              26.79693187822173
            ],
            [
              67.82420452363111,
              26.79719719618293
            ],
            [
              67.8242163177415,
              26.797462755456387
            ],
            [
              67.82425706050083,
              26.797725998560633
            ],
            [
              67.82432635973075,
              26.797984390302688
            ],
            [
              67.82442354822538,
              26.798235442194045
            ],
            [
              67.82454769016972,
              26.798476736417534
            ],
            [
              67.82469759014587,
              26.79870594911415
            ],
            [
              67.82487180464028,
              26.798920872765525
            ],
            [
              67.82506865594141,
              26.799119437456397
            ],
            [
              67.82528624829453,
              26.79929973081226
            ],
            [
              67.82552248615758,
              26.799460016419907
            ],
            [
              67.82577509438273,
              26.799598750553518
            ],
            [
              67.82604164012918,
              26.79971459704495
            ],
            [
              67.82631955629594,
              26.799806440154924
            ],
            [
              67.82660616624918,
              26.799873395321097
            ],
            [
              67.82689870960523,
              26.799914817679248
            ],
            [
              67.82719436882137,
              26.799930308275634
            ],
            [
              67.82749029633754,
              26.799919717910363
            ],
            [
              67.82778364200773,
              26.79988314857501
            ],
            [
              67.82807158055597,
              26.799820952470245
            ],
            [
              67.82835133879311,
              26.799733728613376
            ],
            [
              67.82862022233104,
              26.799622317068067
            ],
            [
              67.82887564153745,
              26.799487790852176
            ],
            [
              67.82911513648067,
              26.7993314456015
            ],
            [
              67.8293364006242,
              26.799154787089293
            ],
            [
              67.82953730304251,
              26.798959516721613
            ],
            [
              67.82971590894435,
              26.798747515148445
            ],
            [
              67.82987049830533,
              26.798520824148635
            ],
            [
              67.82999958243094,
              26.798281626963007
            ],
            [
              67.83010191829025,
              26.798032227265427
            ],
            [
              67.83017652048228,
              26.79777502697429
            ],
            [
              67.8302226707202,
              26.797512503118313
            ],
            [
              67.83023992474234,
              26.79724718397953
            ]
          ]
        ]
      },
      "properties": {
        "cluster_id": "Village_Cluster_06",
        "rank": 1,
        "Rank": 1,
        "estimated_population": 168.9,
        "population": 168.9,
        "trapped_nodes": 1,
        "radius_m": 50.0,
        "dist_to_hub_km": 6.01,
        "nearest_hub": "Relief_Hub_65",
        "critical_access_obstacles": "Flooded secondary artery on Corridor 7-7 (100% flooded); Flooded secondary artery on Corridor 6-7 (92% flooded); Flooded residential access road on Road 7-6 (100% flooded)",
        "has_bridge_cut": false,
        "has_highway_cut": true,
        "center_lon": 67.827222,
        "center_lat": 26.797222
      }
    },
    {
      "type": "Feature",
      "geometry": {
        "type": "Polygon",
        "coordinates": [
          [
            [
              67.81134902003654,
              26.72169196496826
            ],
            [
              67.81133725649951,
              26.721426403090753
            ],
            [
              67.81129656368455,
              26.721163155379255
            ],
            [
              67.81122733368169,
              26.720904757035324
            ],
            [
              67.81113023339657,
              26.720653696541724
            ],
            [
              67.81100619812078,
              26.720412391698282
            ],
            [
              67.81085642251824,
              26.720183166339126
            ],
            [
              67.81068234911473,
              26.7199682279553
            ],
            [
              67.81048565440143,
              26.71976964643826
            ],
            [
              67.81026823268685,
              26.71958933414891
            ],
            [
              67.8100321778524,
              26.719429027503853
            ],
            [
              67.80977976318746,
              26.719290270256206
            ],
            [
              67.80951341949822,
              26.719174398631743
            ],
            [
              67.80923571170095,
              26.71908252846353
            ],
            [
              67.80894931412502,
              26.71901554444862
            ],
            [
              67.80865698476337,
              26.718974091630404
            ],
            [
              67.80836153871817,
              26.718958569188356
            ],
            [
              67.80806582109703,
              26.718969126595024
            ],
            [
              67.80777267962085,
              26.71900566217719
            ],
            [
              67.80748493720634,
              26.71906782409502
            ],
            [
              67.8072053647874,
              26.719155013729775
            ],
            [
              67.80693665463642,
              26.719266391447544
            ],
            [
              67.80668139444265,
              26.719400884683413
            ],
            [
              67.80644204239643,
              26.71955719826848
            ],
            [
              67.80622090351956,
              26.719733826900097
            ],
            [
              67.80602010746941,
              26.719929069635665
            ],
            [
              67.80584158803019,
              26.720141046270218
            ],
            [
              67.80568706448938,
              26.720367715440418
            ],
            [
              67.80555802507807,
              26.72060689428061
            ],
            [
              67.80545571263542,
              26.720856279441882
            ],
            [
              67.80538111263466,
              26.72111346927172
            ],
            [
              67.80533494368686,
              26.721375986940796
            ],
            [
              67.80531765061365,
              26.721641304294277
            ],
            [
              67.80532940015607,
              26.721906866198104
            ],
            [
              67.80537007936113,
              26.722170115145616
            ],
            [
              67.80543929666186,
              26.72242851588775
            ],
            [
              67.80553638564072,
              26.722679579849608
            ],
            [
              67.8056604114406,
              26.722920889098038
            ],
            [
              67.80581017976175,
              26.723150119629658
            ],
            [
              67.80598424835823,
              26.723365063754645
            ],
            [
              67.80618094092358,
              26.723563651360916
            ],
            [
              67.80639836323182,
              26.72374396985355
            ],
            [
              67.80663442137876,
              26.723904282577564
            ],
            [
              67.80688684194767,
              26.724043045546228
            ],
            [
              67.80715319390552,
              26.724158922313908
            ],
            [
              67.80743091201828,
              26.724250796849905
            ],
            [
              67.80771732156012,
              26.72431778428929
            ],
            [
              67.80800966407828,
              26.724359239457087
            ],
            [
              67.80830512396501,
              26.724374763083524
            ],
            [
              67.80860085558076,
              26.724364205650538
            ],
            [
              67.80889401066683,
              26.72432766883236
            ],
            [
              67.80918176578349,
              26.724265504516318
            ],
            [
              67.80946134950871,
              26.72417831141332
            ],
            [
              67.80973006913558,
              26.72406692929055
            ],
            [
              67.80998533661074,
              26.723932430882215
            ],
            [
              67.81022469346398,
              26.723776111556003
            ],
            [
              67.81044583448879,
              26.72359947683515
            ],
            [
              67.81064662994528,
              26.72340422789629
            ],
            [
              67.81082514607202,
              26.72319224518279
            ],
            [
              67.81097966370886,
              26.72296557029157
            ],
            [
              67.81110869485154,
              26.722726386308153
            ],
            [
              67.81121099697873,
              26.7224769967791
            ],
            [
              67.81128558501356,
              26.722219803524784
            ],
            [
              67.81133174080486,
              26.721957283506132
            ],
            [
              67.81134902003654,
              26.72169196496826
            ]
          ]
        ]
      },
      "properties": {
        "cluster_id": "Village_Cluster_07",
        "rank": 1,
        "Rank": 1,
        "estimated_population": 164.7,
        "population": 164.7,
        "trapped_nodes": 1,
        "radius_m": 50.0,
        "dist_to_hub_km": 5.63,
        "nearest_hub": "Relief_Hub_55",
        "critical_access_obstacles": "Flooded residential access road on Corridor 2-6 (100% flooded); Flooded residential access road on Road 3-5 (100% flooded); Flooded residential access road on Road 3-6 (100% flooded)",
        "has_bridge_cut": false,
        "has_highway_cut": false,
        "center_lon": 67.808333,
        "center_lat": 26.721667
      }
    },
    {
      "type": "Feature",
      "geometry": {
        "type": "Polygon",
        "coordinates": [
          [
            [
              67.83023643823,
              26.665024848139883
            ],
            [
              67.83022463128742,
              26.664759284502356
            ],
            [
              67.83018390964895,
              26.664496039382247
            ],
            [
              67.83011466568153,
              26.664237647956096
            ],
            [
              67.83001756642473,
              26.663986598640026
            ],
            [
              67.82989354715963,
              26.663745309126263
            ],
            [
              67.82974380239544,
              26.66351610310136
            ],
            [
              67.82956977436048,
              26.6633011878703
            ],
            [
              67.82937313910867,
              26.663102633101733
            ],
            [
              67.82915579037561,
              26.662922350899155
            ],
            [
              67.82891982133972,
              26.662762077389655
            ],
            [
              67.8286675044641,
              26.662623356007476
            ],
            [
              67.82840126961322,
              26.66250752263325
            ],
            [
              67.82812368065545,
              26.662415692731916
            ],
            [
              67.827837410776,
              26.66234875061298
            ],
            [
              67.82754521673846,
              26.66230734091658
            ],
            [
              67.82724991234221,
              26.66229186240709
            ],
            [
              67.82695434133133,
              26.66230246413413
            ],
            [
              67.82666135001533,
              26.662339043997758
            ],
            [
              67.82637375986546,
              26.662401249731747
            ],
            [
              67.8260943403498,
              26.662488482295423
            ],
            [
              67.82582578226884,
              26.6625999016414
            ],
            [
              67.82557067184779,
              26.662734434803784
            ],
            [
              67.82533146583503,
              26.662890786229024
            ],
            [
              67.82511046784641,
              26.663067450249912
            ],
            [
              67.82490980618265,
              26.6632627255828
            ],
            [
              67.82473141333394,
              26.663474731708575
            ],
            [
              67.82457700736856,
              26.663701426979635
            ],
            [
              67.82444807538528,
              26.663940628278713
            ],
            [
              67.82434585918837,
              26.66419003204034
            ],
            [
              67.82427134332387,
              26.664447236432625
            ],
            [
              67.82422524559213,
              26.664709764485785
            ],
            [
              67.82420801012843,
              26.664975087944786
            ],
            [
              67.82421980311844,
              26.665240651616607
            ],
            [
              67.82426051119013,
              26.66550389797745
            ],
            [
              67.82432974249788,
              26.6657622918031
            ],
            [
              67.82442683048869,
              26.666013344585227
            ],
            [
              67.82455084031437,
              26.666254638498412
            ],
            [
              67.82470057782848,
              26.666483849687022
            ],
            [
              67.82487460108133,
              26.666698770647635
            ],
            [
              67.82507123420277,
              26.66689733149143
            ],
            [
              67.82528858353905,
              26.667077619881432
            ],
            [
              67.82552455588859,
              26.667237899452783
            ],
            [
              67.82577687866093,
              26.667376626538278
            ],
            [
              67.826043121765,
              26.667492465038112
            ],
            [
              67.82632072101525,
              26.66758429929038
            ],
            [
              67.82660700283098,
              26.66765124481835
            ],
            [
              67.82689920998988,
              26.6676926568509
            ],
            [
              67.82719452818827,
              26.667708136533875
            ],
            [
              67.82749011315173,
              26.66769753477255
            ],
            [
              67.82778311803452,
              26.667660953668186
            ],
            [
              67.82807072084402,
              26.66759874553469
            ],
            [
              67.82835015162568,
              26.667511509504955
            ],
            [
              67.82861871914606,
              26.667400085759557
            ],
            [
              67.8288738368172,
              26.667265547433466
            ],
            [
              67.82911304761205,
              26.667109190278662
            ],
            [
              67.82933404773105,
              26.666932520182556
            ],
            [
              67.82953470879158,
              26.66673723866224
            ],
            [
              67.82971309832668,
              26.66652522647461
            ],
            [
              67.82986749839532,
              26.66629852550024
            ],
            [
              67.8299964221254,
              26.666059319075554
            ],
            [
              67.8300986280298,
              26.665809910963
            ],
            [
              67.83017313195805,
              26.66555270316167
            ],
            [
              67.83021921656845,
              26.665290172772366
            ],
            [
              67.83023643823,
              26.665024848139883
            ]
          ]
        ]
      },
      "properties": {
        "cluster_id": "Village_Cluster_08",
        "rank": 1,
        "Rank": 1,
        "estimated_population": 159.6,
        "population": 159.6,
        "trapped_nodes": 1,
        "radius_m": 50.0,
        "dist_to_hub_km": 11.89,
        "nearest_hub": "Relief_Hub_55",
        "critical_access_obstacles": "Flooded secondary artery on Corridor 0-7 (100% flooded); Flooded residential access road on Road 0-6 (100% flooded); Flooded residential access road on Road 0-7 (31% flooded)",
        "has_bridge_cut": false,
        "has_highway_cut": true,
        "center_lon": 67.827222,
        "center_lat": 26.665
      }
    },
    {
      "type": "Feature",
      "geometry": {
        "type": "Polygon",
        "coordinates": [
          [
            [
              67.8302379294987,
              26.72169156351676
            ],
            [
              67.83022612204452,
              26.721426001763312
            ],
            [
              67.83018538553812,
              26.72116275804076
            ],
            [
              67.83011611249024,
              26.72090436751212
            ],
            [
              67.83001897022103,
              26.720653318584763
            ],
            [
              67.82989489442627,
              26.720412028947035
            ],
            [
              67.82974508016,
              26.720182822286528
            ],
            [
              67.82957097032013,
              26.719967905914142
            ],
            [
              67.82937424174861,
              26.71976934950932
            ],
            [
              67.82915678907987,
              26.719589065191087
            ],
            [
              67.82892070649324,
              26.71942878910669
            ],
            [
              67.82866826754515,
              26.71929006471497
            ],
            [
              67.82840190327553,
              26.719174227925336
            ],
            [
              67.82812417879872,
              26.719082394235446
            ],
            [
              67.82783776860458,
              26.719015447991165
            ],
            [
              67.8275454308075,
              26.71897403387224
            ],
            [
              67.8272499805908,
              26.718958550685564
            ],
            [
              67.82695426310228,
              26.718969147525787
            ],
            [
              67.82666112606157,
              26.71900572234004
            ],
            [
              67.82637339234267,
              26.7190679229108
            ],
            [
              67.82609383279583,
              26.719155150247197
            ],
            [
              67.82582513956963,
              26.71926656435233
            ],
            [
              67.82556990019042,
              26.71940109231095
            ],
            [
              67.82533057264824,
              26.719557438619816
            ],
            [
              67.82510946172908,
              26.719734097661178
            ],
            [
              67.82490869682124,
              26.71992936819959
            ],
            [
              67.82473021140918,
              26.720141369762313
            ],
            [
              67.82457572445283,
              26.720368060745912
            ],
            [
              67.82444672383119,
              26.7206072580746
            ],
            [
              67.82434445200991,
              26.720856658221326
            ],
            [
              67.82426989407116,
              26.721113859389142
            ],
            [
              67.82422376822103,
              26.721376384639413
            ],
            [
              67.82420651886616,
              26.721641705744204
            ],
            [
              67.82421831232655,
              26.72190726753317
            ],
            [
              67.82425903522629,
              26.722170512500615
            ],
            [
              67.8243282955775,
              26.722428905435706
            ],
            [
              67.82442542654802,
              26.72267995783858
            ],
            [
              67.82454949287619,
              26.72292125188734
            ],
            [
              67.82469929987182,
              26.72315046372486
            ],
            [
              67.82487340491639,
              26.723365385841312
            ],
            [
              67.82507013135223,
              26.723563948336505
            ],
            [
              67.82528758462698,
              26.72374423885735
            ],
            [
              67.82552367053805,
              26.72390452101826
            ],
            [
              67.8257761154012,
              26.72404325112686
            ],
            [
              67.82604248794922,
              26.724159093054055
            ],
            [
              67.82632022274966,
              26.72425093110474
            ],
            [
              67.82660664491588,
              26.72431788076549
            ],
            [
              67.82689899587344,
              26.72435929722525
            ],
            [
              67.82719445993327,
              26.72437478158716
            ],
            [
              67.82749019141554,
              26.724364184711423
            ],
            [
              67.82778334206293,
              26.724327608652267
            ],
            [
              67.82807108847848,
              26.72426540567506
            ],
            [
              67.82835065932403,
              26.724178174863134
            ],
            [
              67.82861936201681,
              26.72406675634697
            ],
            [
              67.82887460866667,
              26.723932223211335
            ],
            [
              67.82911394100415,
              26.723775871158406
            ],
            [
              67.82933505405897,
              26.723599206026677
            ],
            [
              67.82953581836081,
              26.72340392928565
            ],
            [
              67.82971430044846,
              26.723191921646414
            ],
            [
              67.82986878148972,
              26.722965224945938
            ],
            [
              67.82999777383296,
              26.722726022479687
            ],
            [
              67.83010003533063,
              26.722476617972166
            ],
            [
              67.83017458129727,
              26.722219413387887
            ],
            [
              67.83022069398693,
              26.721956885796782
            ],
            [
              67.8302379294987,
              26.72169156351676
            ]
          ]
        ]
      },
      "properties": {
        "cluster_id": "Village_Cluster_09",
        "rank": 1,
        "Rank": 1,
        "estimated_population": 157.3,
        "population": 157.3,
        "trapped_nodes": 1,
        "radius_m": 50.0,
        "dist_to_hub_km": 7.02,
        "nearest_hub": "Relief_Hub_55",
        "critical_access_obstacles": "Flooded secondary artery on Corridor 2-7 (100% flooded); Flooded secondary artery on Corridor 3-7 (100% flooded); Flooded residential access road on Road 3-6 (100% flooded)",
        "has_bridge_cut": false,
        "has_highway_cut": true,
        "center_lon": 67.827222,
        "center_lat": 26.721667
      }
    },
    {
      "type": "Feature",
      "geometry": {
        "type": "Polygon",
        "coordinates": [
          [
            [
              67.8113505157205,
              26.778358681104876
            ],
            [
              67.81133875176502,
              26.77809312111086
            ],
            [
              67.81129804413189,
              26.777829874789024
            ],
            [
              67.81122878505441,
              26.777571477327466
            ],
            [
              67.81113164171876,
              26.777320417200364
            ],
            [
              67.81100754983163,
              26.777079112203864
            ],
            [
              67.81085770460251,
              26.77684988617341
            ],
            [
              67.81068354922802,
              26.77663494660632
            ],
            [
              67.81048676098894,
              26.77643636340524
            ],
            [
              67.81026923509458,
              26.776256048947058
            ],
            [
              67.81003306642963,
              26.776095739669056
            ],
            [
              67.80978052937952,
              26.7759569793495
            ],
            [
              67.80951405592886,
              26.775841104243554
            ],
            [
              67.80923621224319,
              26.775749230217624
            ],
            [
              67.80894967396016,
              26.775682242005782
            ],
            [
              67.80865720042725,
              26.77564078469174
            ],
            [
              67.80836160813449,
              26.775625257498184
            ],
            [
              67.80806574359738,
              26.77563580994342
            ],
            [
              67.8077724559511,
              26.77567234040201
            ],
            [
              67.80748456951947,
              26.77573449708353
            ],
            [
              67.80720485662282,
              26.77582168141976
            ],
            [
              67.80693601088596,
              26.775933053827956
            ],
            [
              67.8066806213035,
              26.776067541794518
            ],
            [
              67.80644114731157,
              26.77622385020147
            ],
            [
              67.80621989510621,
              26.776400473796247
            ],
            [
              67.80601899543608,
              26.776595711684976
            ],
            [
              67.80584038308336,
              26.776807683709574
            ],
            [
              67.8056857782305,
              26.77703434855133
            ],
            [
              67.80555666989198,
              26.777273523386466
            ],
            [
              67.80545430157106,
              26.77752290490481
            ],
            [
              67.80537965927958,
              26.777780091489063
            ],
            [
              67.8053334620364,
              26.778042606341266
            ],
            [
              67.80531615493624,
              26.7783079213338
            ],
            [
              67.80532790485582,
              26.778573481355345
            ],
            [
              67.8053685988391,
              26.778836728917362
            ],
            [
              67.80543784517734,
              26.77909512878408
            ],
            [
              67.80553497717392,
              26.779346192388896
            ],
            [
              67.80565905955791,
              26.77958750180201
            ],
            [
              67.80580889748501,
              26.779816733018247
            ],
            [
              67.80598304803925,
              26.78003167834102
            ],
            [
              67.80617983412505,
              26.780230267646484
            ],
            [
              67.80639736061585,
              26.780410588323157
            ],
            [
              67.80663353260405,
              26.78057090369479
            ],
            [
              67.8068860755765,
              26.780709669748944
            ],
            [
              67.80715255732103,
              26.78082555001008
            ],
            [
              67.80743041135332,
              26.780917428413673
            ],
            [
              67.80771696163816,
              26.780984420057422
            ],
            [
              67.8080094483668,
              26.781025879725735
            ],
            [
              67.80830505454215,
              26.781041408105445
            ],
            [
              67.80860093311514,
              26.78103085563267
            ],
            [
              67.8088942344113,
              26.780994323933907
            ],
            [
              67.80918213358215,
              26.78093216484723
            ],
            [
              67.80946185781788,
              26.780844977033286
            ],
            [
              67.80973071305787,
              26.780733600208475
            ],
            [
              67.80998610994234,
              26.780599107056126
            ],
            [
              67.81022558875455,
              26.780442792893496
            ],
            [
              67.8104468431132,
              26.780266163194337
            ],
            [
              67.81064774218689,
              26.78007091908712
            ],
            [
              67.81082635121633,
              26.779858940968882
            ],
            [
              67.81098095014684,
              26.77963227039253
            ],
            [
              67.81111005019152,
              26.779393090402206
            ],
            [
              67.8112124081658,
              26.779143704506197
            ],
            [
              67.81128703845548,
              26.778886514490033
            ],
            [
              67.81133322250291,
              26.778623997283564
            ],
            [
              67.8113505157205,
              26.778358681104876
            ]
          ]
        ]
      },
      "properties": {
        "cluster_id": "Village_Cluster_10",
        "rank": 1,
        "Rank": 1,
        "estimated_population": 153.8,
        "population": 153.8,
        "trapped_nodes": 1,
        "radius_m": 50.0,
        "dist_to_hub_km": 3.76,
        "nearest_hub": "Relief_Hub_65",
        "critical_access_obstacles": "Flooded residential access road on Corridor 5-6 (100% flooded); Flooded residential access road on Road 6-5 (90% flooded); Flooded residential access road on Road 6-6 (90% flooded)",
        "has_bridge_cut": false,
        "has_highway_cut": false,
        "center_lon": 67.808333,
        "center_lat": 26.778333
      }
    },
    {
      "type": "Feature",
      "geometry": {
        "type": "Polygon",
        "coordinates": [
          [
            [
              67.8113500166669,
              26.759469775728885
            ],
            [
              67.81133825285252,
              26.75920421510669
            ],
            [
              67.81129755016514,
              26.758940968321248
            ],
            [
              67.8112283007902,
              26.758682570565163
            ],
            [
              67.8111311718203,
              26.75843151031547
            ],
            [
              67.81100709882361,
              26.75819020536956
            ],
            [
              67.81085727682755,
              26.757960979562434
            ],
            [
              67.8106831488049,
              26.757746040389314
            ],
            [
              67.81048639177295,
              26.757547457749133
            ],
            [
              67.8102689006405,
              26.75736714401345
            ],
            [
              67.81003276995739,
              26.757206835612667
            ],
            [
              67.8097802737434,
              26.75706807631666
            ],
            [
              67.80951384358988,
              26.756952202370805
            ],
            [
              67.80923604524558,
              26.756860329630396
            ],
            [
              67.80894955391159,
              26.75679334281718
            ],
            [
              67.80865712848343,
              26.75675188700141
            ],
            [
              67.80836158498806,
              26.756736361391397
            ],
            [
              67.80806576947124,
              26.75674691549018
            ],
            [
              67.80777253059622,
              26.756783447656392
            ],
            [
              67.80748469221734,
              26.756845606083157
            ],
            [
              67.8072050261923,
              26.75693279218542
            ],
            [
              67.80693622569474,
              26.75704416636337
            ],
            [
              67.80668087928366,
              26.757178656086303
            ],
            [
              67.80644144597956,
              26.75733496621926
            ],
            [
              67.80622023158666,
              26.757511591493017
            ],
            [
              67.80601936648952,
              26.757706830997424
            ],
            [
              67.80584078513735,
              26.757918804558784
            ],
            [
              67.80568620741398,
              26.758145470843505
            ],
            [
              67.80555712207254,
              26.758384647013855
            ],
            [
              67.8054547723947,
              26.758634029746737
            ],
            [
              67.80538014421259,
              26.75889121741312
            ],
            [
              67.80533395640904,
              26.759153733204577
            ],
            [
              67.80531665398765,
              26.759419048984423
            ],
            [
              67.8053284037799,
              26.75968460963375
            ],
            [
              67.80536909283076,
              26.75994785765799
            ],
            [
              67.80543832947882,
              26.760206257816915
            ],
            [
              67.80553544712059,
              26.760457321541164
            ],
            [
              67.80565951062324,
              26.76069863089981
            ],
            [
              67.80580932532418,
              26.760927861888284
            ],
            [
              67.805983448531,
              26.761142806812238
            ],
            [
              67.80618020341143,
              26.76134139555175
            ],
            [
              67.80639769513941,
              26.761521715500844
            ],
            [
              67.80663382914216,
              26.76168202999037
            ],
            [
              67.80688633127238,
              26.76182079501645
            ],
            [
              67.80715276971134,
              26.761936674113503
            ],
            [
              67.80743057839187,
              26.76202855122828
            ],
            [
              67.8077170817157,
              26.76209554147093
            ],
            [
              67.80800952032651,
              26.762136999639402
            ],
            [
              67.80830507769076,
              26.76215252643498
            ],
            [
              67.8086009072297,
              26.76214197230907
            ],
            [
              67.80889415974126,
              26.762105438904065
            ],
            [
              67.80918201084701,
              26.762043278074458
            ],
            [
              67.80946168820016,
              26.761956088497648
            ],
            [
              67.80973049819177,
              26.761844709906956
            ],
            [
              67.80998585189798,
              26.76171021500268
            ],
            [
              67.81022529001794,
              26.761553899118876
            ],
            [
              67.81044650656234,
              26.7613772677458
            ],
            [
              67.81064737106398,
              26.76118202202797
            ],
            [
              67.81082594909647,
              26.760970042377867
            ],
            [
              67.81098052090361,
              26.760743370363077
            ],
            [
              67.81110959795963,
              26.760504189041534
            ],
            [
              67.81121193730124,
              26.760254801934284
            ],
            [
              67.81128655349352,
              26.759997610838465
            ],
            [
              67.81133272811441,
              26.7597350926943
            ],
            [
              67.8113500166669,
              26.759469775728885
            ]
          ]
        ]
      },
      "properties": {
        "cluster_id": "Village_Cluster_11",
        "rank": 1,
        "Rank": 1,
        "estimated_population": 142.8,
        "population": 142.8,
        "trapped_nodes": 1,
        "radius_m": 50.0,
        "dist_to_hub_km": 3.76,
        "nearest_hub": "Relief_Hub_55",
        "critical_access_obstacles": "Submerged bridge on Road 5-6 (primary, 41% flooded); Flooded primary artery on Road 5-5 (100% flooded); Flooded residential access road on Corridor 4-6 (100% flooded)",
        "has_bridge_cut": true,
        "has_highway_cut": true,
        "center_lon": 67.808333,
        "center_lat": 26.759444
      }
    }
  ]
}