{
"type": "FeatureCollection",
"name": "rescue_manifest",
"crs": { "type": "name", "properties": { "name": "urn:ogc:def:crs:OGC:1.3:CRS84" } },
"features": [
{ "type": "Feature", "properties": { "Rank": 1, "Cluster_ID": "Village_Cluster_01", "Priority_Tier": "MEDIUM", "Priority_Score": 45.2, "Estimated_Population": 16571, "Trapped_Nodes": 1, "Dist_to_Hub_km": 2.81, "Nearest_Hub": "Relief_Hub_55", "Centroid_Lat": 26.740556, "Centroid_Lon": 67.789444, "Recommended_Action": "Road detour possible / High-clearance vehicle rescue" }, "geometry": { "type": "Polygon", "coordinates": [ [ [ 67.792460608310989, 26.740581272060602 ], [ 67.792448888590499, 26.740315710714228 ], [ 67.792408234574012, 26.74005245950157 ], [ 67.792339037978152, 26.73979405365802 ], [ 67.79224196538712, 26.739542981738655 ], [ 67.792117951826029, 26.739301661653386 ], [ 67.791968191749987, 26.739072417383174 ], [ 67.791794127535411, 26.738857456601185 ], [ 67.791597435585302, 26.738658849414545 ], [ 67.791380010181712, 26.738478508431321 ], [ 67.791143945241771, 26.738318170344368 ], [ 67.790891514152278, 26.738179379209502 ], [ 67.790625147877705, 26.738063471578734 ], [ 67.790347411551792, 26.737971563631731 ], [ 67.790060979778701, 26.737904540429245 ], [ 67.789768610880586, 26.737863047391912 ], [ 67.789473120340219, 26.737847484086373 ], [ 67.789177353693589, 26.737858000378605 ], [ 67.788884159133531, 26.737894494991181 ], [ 67.788596360087709, 26.737956616478748 ], [ 67.788316728035156, 26.738043766611842 ], [ 67.78804795582235, 26.738155106136894 ], [ 67.787792631735911, 26.738289562856803 ], [ 67.787553214581294, 26.738445841954306 ], [ 67.787332010007077, 26.73862243845895 ], [ 67.787131148303089, 26.73881765173757 ], [ 67.78695256388572, 26.739029601868975 ], [ 67.786797976668041, 26.739256247745161 ], [ 67.786668875494399, 26.739495406724959 ], [ 67.786566503798667, 26.739744775650841 ], [ 67.786491847624774, 26.740001953026798 ], [ 67.786445626124831, 26.740264462143589 ], [ 67.786428284626723, 26.740529774928909 ], [ 67.786439990338039, 26.740795336292816 ], [ 67.786480630728079, 26.741058588733981 ], [ 67.786549814603944, 26.741316996969815 ], [ 67.786646875870247, 26.741568072353306 ], [ 67.786770879937023, 26.741809396841393 ], [ 67.786920632714114, 26.742038646283952 ], [ 67.787094692105498, 26.742253612809044 ], [ 67.78729138189361, 26.742452226088808 ], [ 67.787508807879419, 26.742632573281053 ], [ 67.787744876123483, 26.742792917454299 ], [ 67.787997313111973, 26.742931714318839 ], [ 67.788263687653767, 26.743047627102484 ], [ 67.788541434297358, 26.743139539427524 ], [ 67.788827878042156, 26.74320656606498 ], [ 67.789120260105889, 26.743248061462211 ], [ 67.789415764499864, 26.743263625961873 ], [ 67.789711545155669, 26.743253109652123 ], [ 67.790004753342174, 26.743216613811029 ], [ 67.79029256510799, 26.743154489931182 ], [ 67.790572208485273, 26.743067336333979 ], [ 67.790840990192379, 26.742955992406088 ], [ 67.791096321577797, 26.742821530513833 ], [ 67.791335743555592, 26.742665245673237 ], [ 67.79155695029182, 26.742488643075465 ], [ 67.791757811413561, 26.742293423587828 ], [ 67.791936392526821, 26.742081467370127 ], [ 67.79209097384549, 26.741854815764263 ], [ 67.792220066751938, 26.741615651631591 ], [ 67.792322428129964, 26.741366278327664 ], [ 67.792397072332164, 26.741109097516734 ], [ 67.79244328066649, 26.740846586040053 ], [ 67.792460608310989, 26.740581272060602 ] ] ] } },
{ "type": "Feature", "properties": { "Rank": 2, "Cluster_ID": "Village_Cluster_08", "Priority_Tier": "MEDIUM", "Priority_Score": 30.1, "Estimated_Population": 160, "Trapped_Nodes": 1, "Dist_to_Hub_km": 11.89, "Nearest_Hub": "Relief_Hub_55", "Centroid_Lat": 26.665, "Centroid_Lon": 67.827222, "Recommended_Action": "Shallow-draft boat evacuation / monitoring" }, "geometry": { "type": "Polygon", "coordinates": [ [ [ 67.830236438230003, 26.665024848139883 ], [ 67.830224631287422, 26.664759284502356 ], [ 67.830183909648952, 26.664496039382247 ], [ 67.830114665681535, 26.664237647956096 ], [ 67.830017566424729, 26.663986598640026 ], [ 67.829893547159628, 26.663745309126263 ], [ 67.829743802395441, 26.663516103101362 ], [ 67.829569774360479, 26.663301187870299 ], [ 67.829373139108668, 26.663102633101733 ], [ 67.829155790375609, 26.662922350899155 ], [ 67.828919821339724, 26.662762077389655 ], [ 67.828667504464093, 26.662623356007476 ], [ 67.828401269613224, 26.662507522633248 ], [ 67.828123680655452, 26.662415692731916 ], [ 67.827837410775999, 26.662348750612981 ], [ 67.827545216738457, 26.662307340916581 ], [ 67.827249912342211, 26.662291862407091 ], [ 67.82695434133133, 26.662302464134129 ], [ 67.826661350015328, 26.662339043997758 ], [ 67.826373759865461, 26.662401249731747 ], [ 67.826094340349798, 26.662488482295423 ], [ 67.825825782268836, 26.6625999016414 ], [ 67.825570671847785, 26.662734434803784 ], [ 67.825331465835035, 26.662890786229024 ], [ 67.825110467846415, 26.663067450249912 ], [ 67.824909806182646, 26.663262725582801 ], [ 67.824731413333936, 26.663474731708575 ], [ 67.824577007368561, 26.663701426979635 ], [ 67.824448075385277, 26.663940628278713 ], [ 67.824345859188369, 26.664190032040342 ], [ 67.824271343323872, 26.664447236432625 ], [ 67.824225245592132, 26.664709764485785 ], [ 67.82420801012843, 26.664975087944786 ], [ 67.824219803118439, 26.665240651616607 ], [ 67.824260511190133, 26.665503897977452 ], [ 67.824329742497881, 26.665762291803102 ], [ 67.82442683048869, 26.666013344585227 ], [ 67.824550840314373, 26.666254638498412 ], [ 67.82470057782848, 26.666483849687022 ], [ 67.824874601081333, 26.666698770647635 ], [ 67.825071234202767, 26.66689733149143 ], [ 67.825288583539049, 26.667077619881432 ], [ 67.825524555888592, 26.667237899452783 ], [ 67.825776878660932, 26.667376626538278 ], [ 67.826043121764997, 26.667492465038112 ], [ 67.82632072101525, 26.667584299290379 ], [ 67.826607002830983, 26.667651244818352 ], [ 67.826899209989875, 26.6676926568509 ], [ 67.827194528188272, 26.667708136533875 ], [ 67.827490113151725, 26.66769753477255 ], [ 67.827783118034517, 26.667660953668186 ], [ 67.828070720844025, 26.66759874553469 ], [ 67.828350151625685, 26.667511509504955 ], [ 67.828618719146064, 26.667400085759557 ], [ 67.828873836817195, 26.667265547433466 ], [ 67.829113047612054, 26.667109190278662 ], [ 67.829334047731052, 26.666932520182556 ], [ 67.829534708791584, 26.66673723866224 ], [ 67.829713098326678, 26.666525226474612 ], [ 67.829867498395316, 26.666298525500238 ], [ 67.829996422125404, 26.666059319075554 ], [ 67.830098628029802, 26.665809910962999 ], [ 67.830173131958048, 26.665552703161669 ], [ 67.830219216568452, 26.665290172772366 ], [ 67.830236438230003, 26.665024848139883 ] ] ] } },
{ "type": "Feature", "properties": { "Rank": 3, "Cluster_ID": "Village_Cluster_05", "Priority_Tier": "MEDIUM", "Priority_Score": 28.6, "Estimated_Population": 185, "Trapped_Nodes": 1, "Dist_to_Hub_km": 8.44, "Nearest_Hub": "Relief_Hub_55", "Centroid_Lat": 26.702778, "Centroid_Lon": 67.827222, "Recommended_Action": "Shallow-draft boat evacuation / monitoring" }, "geometry": { "type": "Polygon", "coordinates": [ [ [ 67.830237431917908, 26.702802658393967 ], [ 67.830225624635887, 26.702537096012133 ], [ 67.830184893091825, 26.702273851823339 ], [ 67.830115629748448, 26.702015460995128 ], [ 67.830018501832242, 26.701764411937784 ], [ 67.82989444490066, 26.701523122340944 ], [ 67.829744653825898, 26.701293915891867 ], [ 67.82957057128246, 26.701078999899472 ], [ 67.829373873849335, 26.700880444039633 ], [ 67.829156455861053, 26.700700160426177 ], [ 67.82892041116294, 26.700539885199657 ], [ 67.82866801294665, 26.700401161810699 ], [ 67.828401691859867, 26.700285326159133 ], [ 67.828124012601208, 26.700193493731721 ], [ 67.827837649225202, 26.700126548862197 ], [ 67.827545359395543, 26.700085136217123 ], [ 67.827249957833772, 26.700069654589207 ], [ 67.826954289219302, 26.700080253058115 ], [ 67.826661200801283, 26.700116829555267 ], [ 67.826373514985676, 26.700179031846922 ], [ 67.826094002161526, 26.700266260925602 ], [ 67.825825354027629, 26.700377676777578 ], [ 67.825570157676182, 26.700512206470734 ], [ 67.825330870682976, 26.700668554485031 ], [ 67.825109797443545, 26.70084521518627 ], [ 67.824909066983309, 26.701040487322906 ], [ 67.824730612454999, 26.701252490406763 ], [ 67.824576152521061, 26.701479182819668 ], [ 67.824447174800156, 26.701718381472013 ], [ 67.824344921537275, 26.701967782823939 ], [ 67.824270377635713, 26.702224985066845 ], [ 67.824224261166194, 26.702487511251714 ], [ 67.824207016444788, 26.702752833141577 ], [ 67.824218809746768, 26.703018395558516 ], [ 67.824259527697492, 26.703281640990809 ], [ 67.824328778356559, 26.70354003422316 ], [ 67.824425894984955, 26.703791086752872 ], [ 67.824549942459029, 26.704032380756864 ], [ 67.824699726269998, 26.704261592378522 ], [ 67.824873804022545, 26.704476514110141 ], [ 67.82507049932174, 26.704675076055302 ], [ 67.825287917915119, 26.704855365866312 ], [ 67.825523965934067, 26.705015647164455 ], [ 67.825776370059316, 26.705154376265778 ], [ 67.826042699416078, 26.705270217050909 ], [ 67.82632038898798, 26.705362053835835 ], [ 67.826606764324112, 26.705429002119345 ], [ 67.826899067301213, 26.705470417103687 ], [ 67.827194482692434, 26.705485899906247 ], [ 67.827490165286918, 26.705475301402238 ], [ 67.827783267298315, 26.705438723661569 ], [ 67.828070965798219, 26.705376518965785 ], [ 67.828350489910164, 26.705289286414736 ], [ 67.828619147501598, 26.705177866155609 ], [ 67.828874351116824, 26.705043331289879 ], [ 67.829113642900936, 26.704886977536344 ], [ 67.829334718274268, 26.704710310749789 ], [ 67.82953544812942, 26.7045150324156 ], [ 67.829713899336895, 26.704303023260124 ], [ 67.829868353361874, 26.704076325134857 ], [ 67.829997322812801, 26.703837121348943 ], [ 67.830099565762453, 26.703587715639507 ], [ 67.830174097703875, 26.70333050998261 ], [ 67.83022020102598, 26.703067981458474 ], [ 67.830237431917908, 26.702802658393967 ] ] ] } },
{ "type": "Feature", "properties": { "Rank": 4, "Cluster_ID": "Village_Cluster_04", "Priority_Tier": "MEDIUM", "Priority_Score": 26.3, "Estimated_Population": 214, "Trapped_Nodes": 1, "Dist_to_Hub_km": 7.32, "Nearest_Hub": "Relief_Hub_55", "Centroid_Lat": 26.702778, "Centroid_Lon": 67.808333, "Recommended_Action": "Shallow-draft boat evacuation / monitoring" }, "geometry": { "type": "Polygon", "coordinates": [ [ [ 67.811348522459085, 26.702803059583612 ], [ 67.811336759058293, 26.702537497078993 ], [ 67.81129607117002, 26.702274248905038 ], [ 67.811226850836675, 26.702015850267788 ], [ 67.8111297648706, 26.701764789652863 ], [ 67.81100574842533, 26.701523484861308 ], [ 67.810855995983317, 26.701294259726804 ], [ 67.810681949847151, 26.701079321738284 ], [ 67.810485286245367, 26.700880740783493 ], [ 67.810267899186854, 26.700700429217967 ], [ 67.810031882219263, 26.700540123451422 ], [ 67.809779508267326, 26.700401367228583 ], [ 67.809513207745255, 26.700285496765428 ], [ 67.809235545153712, 26.700193627883881 ], [ 67.808949194386855, 26.700126645268661 ], [ 67.808656912987033, 26.700085193949722 ], [ 67.808361515594655, 26.700069673092095 ], [ 67.808065846849018, 26.700080232153116 ], [ 67.807772754000496, 26.7001167694436 ], [ 67.807485059497679, 26.700178933107242 ], [ 67.807205533813232, 26.700266124508477 ], [ 67.80693686876964, 26.700377503996307 ], [ 67.806681651621844, 26.700511998988748 ], [ 67.806442340145736, 26.700668314299882 ], [ 67.806221238972526, 26.700844944610406 ], [ 67.806020477396402, 26.70104018896145 ], [ 67.805841988869631, 26.701252167132434 ], [ 67.805687492381892, 26.701478837745135 ], [ 67.805558475903695, 26.701718017919969 ], [ 67.805456182053192, 26.701967404295104 ], [ 67.80538159612442, 26.702224595206264 ], [ 67.805335436592742, 26.702487113813692 ], [ 67.805318148188931, 26.702752431953492 ], [ 67.805329897608857, 26.703017994484028 ], [ 67.805370571900539, 26.703281243892608 ], [ 67.805439779544074, 26.703539644925748 ], [ 67.805536854214807, 26.703790709005769 ], [ 67.805660861193246, 26.704032018198451 ], [ 67.805810606360751, 26.70426124850098 ], [ 67.805984647694302, 26.704476192225822 ], [ 67.806181309149892, 26.704674779264792 ], [ 67.806398696801153, 26.704855097028542 ], [ 67.806634717077628, 26.705015408869155 ], [ 67.80688709692744, 26.705154170808481 ], [ 67.807153405709713, 26.705270046410877 ], [ 67.807431078606356, 26.705361919656905 ], [ 67.807717441327171, 26.705428905694127 ], [ 67.808009735870456, 26.70547035936109 ], [ 67.808305147090707, 26.705485881402513 ], [ 67.808600829817209, 26.705475322315586 ], [ 67.808893936262322, 26.705438783790477 ], [ 67.80918164345492, 26.705376617730934 ], [ 67.809461180434752, 26.705289422864617 ], [ 67.809729854945175, 26.705178038975653 ], [ 67.809985079367465, 26.705043538815193 ], [ 67.810224395646188, 26.70488721776773 ], [ 67.810445498965578, 26.704710581373028 ], [ 67.810646259948967, 26.704515330823764 ], [ 67.81082474516684, 26.704303346578712 ], [ 67.810979235756733, 26.704076670249513 ], [ 67.811108243974715, 26.703837484935445 ], [ 67.811210527520132, 26.70358809419583 ], [ 67.811285101494917, 26.70333089986266 ], [ 67.811331247883132, 26.703068378907222 ], [ 67.811348522459085, 26.702803059583612 ] ] ] } },
{ "type": "Feature", "properties": { "Rank": 5, "Cluster_ID": "Village_Cluster_02", "Priority_Tier": "LOW", "Priority_Score": 21.1, "Estimated_Population": 1694, "Trapped_Nodes": 1, "Dist_to_Hub_km": 4.59, "Nearest_Hub": "Relief_Hub_55", "Centroid_Lat": 26.721667, "Centroid_Lon": 67.789444, "Recommended_Action": "Road detour possible / Monitor flood levels" }, "geometry": { "type": "Polygon", "coordinates": [ [ [ 67.79246011024523, 26.721692366417049 ], [ 67.792448390626618, 26.721426804444469 ], [ 67.79240774150756, 26.721163552772754 ], [ 67.792338554557261, 26.720905146641734 ], [ 67.792241496266826, 26.720654074609286 ], [ 67.792117501523563, 26.720412754586469 ], [ 67.791967764601139, 26.720183510553689 ], [ 67.791793727652973, 26.719968550181864 ], [ 67.791597066819349, 26.719769943574288 ], [ 67.79137967608267, 26.719589603333485 ], [ 67.791143649026196, 26.719429266145269 ], [ 67.790891258671934, 26.719290476056834 ], [ 67.790624935592135, 26.719174569610193 ], [ 67.79034724450473, 26.719082662973669 ], [ 67.790060859578261, 26.719015641195437 ], [ 67.789768538683958, 26.718974149682456 ], [ 67.789473096842499, 26.718958587986716 ], [ 67.789177379121014, 26.718969105958681 ], [ 67.788884233241376, 26.719005602304762 ], [ 67.78859648216266, 26.719067725562873 ], [ 67.788316896902103, 26.719154877486481 ], [ 67.788048169855671, 26.719266218804712 ], [ 67.787792888875202, 26.719400677303152 ], [ 67.787553512351067, 26.719556958147344 ], [ 67.787332345540648, 26.71973355634994 ], [ 67.787131518370089, 26.719928771261355 ], [ 67.786952964923202, 26.720140722944596 ], [ 67.78679840481476, 26.720367370276652 ], [ 67.786669326627901, 26.720606530602247 ], [ 67.786566973575049, 26.720855900750855 ], [ 67.786492331520392, 26.721113079214646 ], [ 67.786446119479947, 26.721375589273851 ], [ 67.78642878269028, 26.721640902847071 ], [ 67.786440488313431, 26.721906464836778 ], [ 67.786481123819399, 26.722169717735614 ], [ 67.786550298062068, 26.722428126256599 ], [ 67.786647345038674, 26.722679201750015 ], [ 67.78677133029673, 26.722920526171791 ], [ 67.786921059927039, 26.723149775372484 ], [ 67.787095092056461, 26.723364741482559 ], [ 67.78729175072985, 26.723563354178218 ], [ 67.787509142047838, 26.723743700622972 ], [ 67.787745172404854, 26.723904043892599 ], [ 67.787997568651988, 26.724042839706176 ], [ 67.788263899990582, 26.724158751301704 ], [ 67.788541601385333, 26.724250662312972 ], [ 67.788827998271543, 26.724317687523701 ], [ 67.78912033231839, 26.724359181395013 ], [ 67.789415787999801, 26.72437474428429 ], [ 67.789711519716704, 26.724364226295197 ], [ 67.79000467920946, 26.724327728721995 ], [ 67.79029244299582, 26.724265603073917 ], [ 67.790572039570208, 26.724178447689351 ], [ 67.790840776101831, 26.72406710197215 ], [ 67.7910960643744, 26.723932638305804 ], [ 67.791335445717309, 26.723776351723355 ], [ 67.791556614687963, 26.723599747432672 ], [ 67.79175744127717, 26.723404526317317 ], [ 67.791935991423543, 26.723192568552676 ], [ 67.792090545639113, 26.722965915495468 ], [ 67.792219615567163, 26.722726750020986 ], [ 67.792321958312698, 26.722477375497629 ], [ 67.792396588407613, 26.722220193601345 ], [ 67.792442787295499, 26.72195768118381 ], [ 67.79246011024523, 26.721692366417049 ] ] ] } },
{ "type": "Feature", "properties": { "Rank": 6, "Cluster_ID": "Village_Cluster_09", "Priority_Tier": "LOW", "Priority_Score": 19.3, "Estimated_Population": 157, "Trapped_Nodes": 1, "Dist_to_Hub_km": 7.02, "Nearest_Hub": "Relief_Hub_55", "Centroid_Lat": 26.721667, "Centroid_Lon": 67.827222, "Recommended_Action": "Road detour possible / Monitor flood levels" }, "geometry": { "type": "Polygon", "coordinates": [ [ [ 67.830237929498693, 26.72169156351676 ], [ 67.830226122044522, 26.721426001763312 ], [ 67.830185385538115, 26.721162758040759 ], [ 67.830116112490245, 26.720904367512119 ], [ 67.830018970221033, 26.720653318584763 ], [ 67.829894894426275, 26.720412028947035 ], [ 67.829745080159995, 26.720182822286528 ], [ 67.829570970320134, 26.719967905914142 ], [ 67.82937424174861, 26.71976934950932 ], [ 67.829156789079875, 26.719589065191087 ], [ 67.828920706493236, 26.71942878910669 ], [ 67.828668267545154, 26.719290064714968 ], [ 67.828401903275534, 26.719174227925336 ], [ 67.828124178798717, 26.719082394235446 ], [ 67.827837768604581, 26.719015447991165 ], [ 67.827545430807504, 26.718974033872239 ], [ 67.827249980590807, 26.718958550685564 ], [ 67.82695426310228, 26.718969147525787 ], [ 67.826661126061566, 26.719005722340039 ], [ 67.826373392342674, 26.719067922910799 ], [ 67.826093832795834, 26.719155150247197 ], [ 67.825825139569631, 26.719266564352331 ], [ 67.825569900190416, 26.71940109231095 ], [ 67.825330572648241, 26.719557438619816 ], [ 67.825109461729085, 26.719734097661178 ], [ 67.82490869682124, 26.71992936819959 ], [ 67.824730211409175, 26.720141369762313 ], [ 67.824575724452828, 26.720368060745912 ], [ 67.824446723831187, 26.720607258074601 ], [ 67.82434445200991, 26.720856658221326 ], [ 67.824269894071165, 26.721113859389142 ], [ 67.824223768221032, 26.721376384639413 ], [ 67.824206518866163, 26.721641705744204 ], [ 67.824218312326551, 26.721907267533169 ], [ 67.824259035226291, 26.722170512500615 ], [ 67.824328295577502, 26.722428905435706 ], [ 67.824425426548018, 26.722679957838579 ], [ 67.824549492876187, 26.722921251887339 ], [ 67.824699299871824, 26.72315046372486 ], [ 67.824873404916389, 26.723365385841312 ], [ 67.825070131352234, 26.723563948336505 ], [ 67.825287584626977, 26.72374423885735 ], [ 67.825523670538047, 26.723904521018259 ], [ 67.825776115401197, 26.724043251126862 ], [ 67.826042487949223, 26.724159093054055 ], [ 67.826320222749658, 26.724250931104741 ], [ 67.826606644915884, 26.72431788076549 ], [ 67.826898995873435, 26.724359297225249 ], [ 67.827194459933267, 26.724374781587159 ], [ 67.827490191415535, 26.724364184711423 ], [ 67.827783342062929, 26.724327608652267 ], [ 67.828071088478481, 26.724265405675059 ], [ 67.82835065932403, 26.724178174863134 ], [ 67.828619362016809, 26.724066756346971 ], [ 67.828874608666666, 26.723932223211335 ], [ 67.829113941004152, 26.723775871158406 ], [ 67.829335054058973, 26.723599206026677 ], [ 67.82953581836081, 26.723403929285649 ], [ 67.829714300448458, 26.723191921646414 ], [ 67.829868781489722, 26.722965224945938 ], [ 67.829997773832957, 26.722726022479687 ], [ 67.830100035330631, 26.722476617972166 ], [ 67.830174581297271, 26.722219413387887 ], [ 67.830220693986931, 26.721956885796782 ], [ 67.830237929498693, 26.72169156351676 ] ] ] } },
{ "type": "Feature", "properties": { "Rank": 7, "Cluster_ID": "Village_Cluster_11", "Priority_Tier": "LOW", "Priority_Score": 17.9, "Estimated_Population": 143, "Trapped_Nodes": 1, "Dist_to_Hub_km": 3.76, "Nearest_Hub": "Relief_Hub_55", "Centroid_Lat": 26.759444, "Centroid_Lon": 67.808333, "Recommended_Action": "Road detour possible / Monitor flood levels" }, "geometry": { "type": "Polygon", "coordinates": [ [ [ 67.811350016666907, 26.759469775728885 ], [ 67.811338252852522, 26.759204215106688 ], [ 67.811297550165136, 26.758940968321248 ], [ 67.811228300790205, 26.758682570565163 ], [ 67.811131171820307, 26.758431510315472 ], [ 67.811007098823609, 26.758190205369559 ], [ 67.810857276827548, 26.757960979562434 ], [ 67.810683148804898, 26.757746040389314 ], [ 67.810486391772955, 26.757547457749133 ], [ 67.810268900640494, 26.75736714401345 ], [ 67.810032769957388, 26.757206835612667 ], [ 67.809780273743399, 26.75706807631666 ], [ 67.809513843589883, 26.756952202370805 ], [ 67.809236045245584, 26.756860329630396 ], [ 67.808949553911589, 26.756793342817179 ], [ 67.808657128483432, 26.75675188700141 ], [ 67.808361584988063, 26.756736361391397 ], [ 67.808065769471241, 26.756746915490179 ], [ 67.807772530596225, 26.756783447656392 ], [ 67.807484692217344, 26.756845606083157 ], [ 67.807205026192307, 26.75693279218542 ], [ 67.806936225694741, 26.757044166363372 ], [ 67.806680879283661, 26.757178656086303 ], [ 67.806441445979559, 26.757334966219261 ], [ 67.806220231586664, 26.757511591493017 ], [ 67.806019366489522, 26.757706830997424 ], [ 67.805840785137349, 26.757918804558784 ], [ 67.805686207413984, 26.758145470843505 ], [ 67.805557122072543, 26.758384647013855 ], [ 67.805454772394697, 26.758634029746737 ], [ 67.805380144212592, 26.758891217413119 ], [ 67.805333956409044, 26.759153733204577 ], [ 67.805316653987646, 26.759419048984423 ], [ 67.805328403779896, 26.759684609633752 ], [ 67.805369092830759, 26.759947857657991 ], [ 67.805438329478818, 26.760206257816915 ], [ 67.80553544712059, 26.760457321541164 ], [ 67.805659510623244, 26.76069863089981 ], [ 67.805809325324176, 26.760927861888284 ], [ 67.805983448530995, 26.761142806812238 ], [ 67.806180203411429, 26.761341395551749 ], [ 67.80639769513941, 26.761521715500844 ], [ 67.806633829142157, 26.761682029990371 ], [ 67.806886331272381, 26.761820795016451 ], [ 67.807152769711337, 26.761936674113503 ], [ 67.807430578391873, 26.76202855122828 ], [ 67.807717081715694, 26.762095541470931 ], [ 67.808009520326507, 26.762136999639402 ], [ 67.808305077690761, 26.762152526434981 ], [ 67.808600907229703, 26.76214197230907 ], [ 67.808894159741257, 26.762105438904065 ], [ 67.80918201084701, 26.762043278074458 ], [ 67.809461688200159, 26.761956088497648 ], [ 67.809730498191769, 26.761844709906956 ], [ 67.809985851897977, 26.76171021500268 ], [ 67.810225290017939, 26.761553899118876 ], [ 67.810446506562343, 26.7613772677458 ], [ 67.810647371063979, 26.76118202202797 ], [ 67.810825949096468, 26.760970042377867 ], [ 67.810980520903613, 26.760743370363077 ], [ 67.811109597959629, 26.760504189041534 ], [ 67.811211937301238, 26.760254801934284 ], [ 67.811286553493517, 26.759997610838465 ], [ 67.811332728114408, 26.759735092694299 ], [ 67.811350016666907, 26.759469775728885 ] ] ] } },
{ "type": "Feature", "properties": { "Rank": 8, "Cluster_ID": "Village_Cluster_06", "Priority_Tier": "LOW", "Priority_Score": 17.1, "Estimated_Population": 169, "Trapped_Nodes": 1, "Dist_to_Hub_km": 6.01, "Nearest_Hub": "Relief_Hub_65", "Centroid_Lat": 26.797222, "Centroid_Lon": 67.827222, "Recommended_Action": "Road detour possible / Monitor flood levels" }, "geometry": { "type": "Polygon", "coordinates": [ [ [ 67.830239924742344, 26.797247183979529 ], [ 67.8302281165831, 26.796981624743218 ], [ 67.830187360163805, 26.796718382889438 ], [ 67.830118048187771, 26.796459993563104 ], [ 67.830020848350699, 26.796208945159897 ], [ 67.829896696903461, 26.795967655362926 ], [ 67.829746789629155, 26.795738447861105 ], [ 67.82957257032183, 26.795523529973156 ], [ 67.829375716877934, 26.795324971392859 ], [ 67.829158125134555, 26.795144684259895 ], [ 67.828921890610332, 26.79498440474832 ], [ 67.828669288324775, 26.794845676349706 ], [ 67.828402750890461, 26.794729835011779 ], [ 67.82812484508888, 26.794637996275789 ], [ 67.827838247155611, 26.794571044535985 ], [ 67.827545717012356, 26.794529624524912 ], [ 67.827250071694081, 26.794514135106123 ], [ 67.826954158226755, 26.79452472543424 ], [ 67.826660826216553, 26.794561293519131 ], [ 67.826372900414412, 26.794623487208167 ], [ 67.826093153519707, 26.79471070757689 ], [ 67.825824279484678, 26.79482211469567 ], [ 67.825568867576408, 26.794956635716776 ], [ 67.82532937744611, 26.795112975204027 ], [ 67.825108115445374, 26.795289627605658 ], [ 67.824907212417301, 26.795484891750451 ], [ 67.824728603176638, 26.795696887227532 ], [ 67.824574007876066, 26.795923572492349 ], [ 67.82444491543832, 26.796162764524468 ], [ 67.824342569213826, 26.79641215984806 ], [ 67.824267955001844, 26.796669356712837 ], [ 67.824221791551111, 26.796931878221731 ], [ 67.82420452363111, 26.797197196182928 ], [ 67.824216317741502, 26.797462755456387 ], [ 67.824257060500827, 26.797725998560633 ], [ 67.824326359730748, 26.797984390302688 ], [ 67.824423548225383, 26.798235442194045 ], [ 67.824547690169723, 26.798476736417534 ], [ 67.824697590145874, 26.798705949114151 ], [ 67.824871804640281, 26.798920872765525 ], [ 67.825068655941408, 26.799119437456397 ], [ 67.825286248294532, 26.799299730812258 ], [ 67.825522486157581, 26.799460016419907 ], [ 67.825775094382735, 26.799598750553518 ], [ 67.826041640129176, 26.79971459704495 ], [ 67.826319556295942, 26.799806440154924 ], [ 67.826606166249178, 26.799873395321097 ], [ 67.826898709605231, 26.799914817679248 ], [ 67.827194368821367, 26.799930308275634 ], [ 67.827490296337544, 26.799919717910363 ], [ 67.827783642007731, 26.79988314857501 ], [ 67.828071580555971, 26.799820952470245 ], [ 67.828351338793112, 26.799733728613376 ], [ 67.82862022233104, 26.799622317068067 ], [ 67.828875641537451, 26.799487790852176 ], [ 67.829115136480667, 26.799331445601499 ], [ 67.8293364006242, 26.799154787089293 ], [ 67.829537303042514, 26.798959516721613 ], [ 67.829715908944351, 26.798747515148445 ], [ 67.829870498305326, 26.798520824148635 ], [ 67.829999582430943, 26.798281626963007 ], [ 67.830101918290254, 26.798032227265427 ], [ 67.830176520482283, 26.797775026974289 ], [ 67.830222670720204, 26.797512503118313 ], [ 67.830239924742344, 26.797247183979529 ] ] ] } },
{ "type": "Feature", "properties": { "Rank": 9, "Cluster_ID": "Village_Cluster_07", "Priority_Tier": "LOW", "Priority_Score": 12.5, "Estimated_Population": 165, "Trapped_Nodes": 1, "Dist_to_Hub_km": 5.63, "Nearest_Hub": "Relief_Hub_55", "Centroid_Lat": 26.721667, "Centroid_Lon": 67.808333, "Recommended_Action": "Road detour possible / Monitor flood levels" }, "geometry": { "type": "Polygon", "coordinates": [ [ [ 67.811349020036545, 26.721691964968262 ], [ 67.811337256499513, 26.721426403090753 ], [ 67.81129656368455, 26.721163155379255 ], [ 67.811227333681686, 26.720904757035324 ], [ 67.811130233396568, 26.720653696541724 ], [ 67.811006198120779, 26.720412391698282 ], [ 67.810856422518242, 26.720183166339126 ], [ 67.810682349114728, 26.719968227955299 ], [ 67.810485654401432, 26.719769646438259 ], [ 67.810268232686852, 26.71958933414891 ], [ 67.810032177852406, 26.719429027503853 ], [ 67.809779763187464, 26.719290270256206 ], [ 67.809513419498217, 26.719174398631743 ], [ 67.80923571170095, 26.719082528463531 ], [ 67.808949314125016, 26.71901554444862 ], [ 67.808656984763374, 26.718974091630404 ], [ 67.808361538718174, 26.718958569188356 ], [ 67.808065821097031, 26.718969126595024 ], [ 67.807772679620854, 26.719005662177189 ], [ 67.80748493720634, 26.719067824095021 ], [ 67.807205364787393, 26.719155013729775 ], [ 67.806936654636417, 26.719266391447544 ], [ 67.806681394442649, 26.719400884683413 ], [ 67.806442042396426, 26.719557198268479 ], [ 67.806220903519559, 26.719733826900097 ], [ 67.806020107469408, 26.719929069635665 ], [ 67.805841588030191, 26.720141046270218 ], [ 67.805687064489376, 26.720367715440418 ], [ 67.805558025078071, 26.720606894280611 ], [ 67.805455712635421, 26.720856279441882 ], [ 67.805381112634663, 26.721113469271721 ], [ 67.805334943686859, 26.721375986940796 ], [ 67.805317650613645, 26.721641304294277 ], [ 67.805329400156069, 26.721906866198104 ], [ 67.805370079361126, 26.722170115145616 ], [ 67.805439296661859, 26.722428515887749 ], [ 67.805536385640721, 26.722679579849608 ], [ 67.805660411440599, 26.722920889098038 ], [ 67.80581017976175, 26.723150119629658 ], [ 67.805984248358229, 26.723365063754645 ], [ 67.806180940923582, 26.723563651360916 ], [ 67.806398363231821, 26.723743969853551 ], [ 67.80663442137876, 26.723904282577564 ], [ 67.806886841947673, 26.724043045546228 ], [ 67.807153193905521, 26.724158922313908 ], [ 67.807430912018276, 26.724250796849905 ], [ 67.807717321560119, 26.724317784289291 ], [ 67.808009664078284, 26.724359239457087 ], [ 67.808305123965013, 26.724374763083524 ], [ 67.808600855580764, 26.724364205650538 ], [ 67.808894010666833, 26.724327668832359 ], [ 67.809181765783492, 26.724265504516318 ], [ 67.809461349508709, 26.724178311413318 ], [ 67.809730069135583, 26.724066929290551 ], [ 67.809985336610737, 26.723932430882215 ], [ 67.810224693463979, 26.723776111556003 ], [ 67.810445834488789, 26.723599476835151 ], [ 67.810646629945282, 26.723404227896289 ], [ 67.81082514607202, 26.723192245182791 ], [ 67.810979663708864, 26.722965570291571 ], [ 67.811108694851541, 26.722726386308153 ], [ 67.81121099697873, 26.7224769967791 ], [ 67.811285585013565, 26.722219803524784 ], [ 67.81133174080486, 26.721957283506132 ], [ 67.811349020036545, 26.721691964968262 ] ] ] } },
{ "type": "Feature", "properties": { "Rank": 10, "Cluster_ID": "Village_Cluster_03", "Priority_Tier": "LOW", "Priority_Score": 10.0, "Estimated_Population": 227, "Trapped_Nodes": 1, "Dist_to_Hub_km": 4.3, "Nearest_Hub": "Relief_Hub_55", "Centroid_Lat": 26.740556, "Centroid_Lon": 67.808333, "Recommended_Action": "Road detour possible / Monitor flood levels" }, "geometry": { "type": "Polygon", "coordinates": [ [ [ 67.8113495181057, 26.740580870350016 ], [ 67.811337754430809, 26.74031530909998 ], [ 67.811297056682804, 26.740052061851326 ], [ 67.81122781699942, 26.739793663801112 ], [ 67.811130702379685, 26.739542603429253 ], [ 67.811006648253425, 26.739301298534357 ], [ 67.810856849466234, 26.739072072951 ], [ 67.810682748767221, 26.738857134172299 ], [ 67.810486022910553, 26.738658552093469 ], [ 67.810268566504661, 26.738478239080738 ], [ 67.810032473765048, 26.738317931557592 ], [ 67.809780018346103, 26.738179173285555 ], [ 67.809513631446393, 26.738063300500201 ], [ 67.809235878398198, 26.737971429045704 ], [ 67.808949433966561, 26.737904443631454 ], [ 67.808657056595493, 26.737862989314305 ], [ 67.808361561849296, 26.737847465288109 ], [ 67.808065795304458, 26.737858021040708 ], [ 67.807772605152778, 26.737894554914785 ], [ 67.807484814779599, 26.737956715086991 ], [ 67.807205195580465, 26.738043902955422 ], [ 67.806936440278164, 26.738155278903225 ], [ 67.806681136996659, 26.738289770382593 ], [ 67.8064417443411, 26.738446082241602 ], [ 67.806220567724367, 26.738622709194296 ], [ 67.806019737167205, 26.738817950314314 ], [ 67.805841186786196, 26.739029925412325 ], [ 67.80568663616684, 26.739256593139864 ], [ 67.805557573801124, 26.739495770645227 ], [ 67.805455242749375, 26.739745154592427 ], [ 67.805380628664167, 26.740002343340677 ], [ 67.80533445029242, 26.740264860071086 ], [ 67.805317152546664, 26.740530176637915 ], [ 67.805328902213191, 26.740795737914677 ], [ 67.805369586337989, 26.741058986400738 ], [ 67.805438813306878, 26.741317386851467 ], [ 67.805535916609415, 26.741568450694725 ], [ 67.805659961250711, 26.741809759998482 ], [ 67.805809752749667, 26.742038990758754 ], [ 67.805983848637226, 26.742253935283451 ], [ 67.806180572344175, 26.742452523456556 ], [ 67.806398029344649, 26.742632842677647 ], [ 67.806634125400336, 26.74279315628463 ], [ 67.806886586729391, 26.742931920282214 ], [ 67.807152981906114, 26.743047798214779 ], [ 67.807430745280158, 26.743139674040354 ], [ 67.807717201689655, 26.743206662881551 ], [ 67.808009592230306, 26.74324811954985 ], [ 67.808305100831703, 26.743263644761011 ], [ 67.808600881384919, 26.743253088981696 ], [ 67.808894085159793, 26.743216553870216 ], [ 67.80918188824748, 26.743154391297484 ], [ 67.809461518763797, 26.743067199957654 ], [ 67.809730283551062, 26.742955819600979 ], [ 67.809985594120846, 26.742821322944707 ], [ 67.81022499158783, 26.74266500533971 ], [ 67.810446170354282, 26.742488372292733 ], [ 67.810647000316848, 26.742293124964363 ], [ 67.810825547381796, 26.742081143782507 ], [ 67.810980092091057, 26.741854470329415 ], [ 67.811109146179746, 26.741615287676844 ], [ 67.811211466905661, 26.741365899358577 ], [ 67.811286069012993, 26.741108707183383 ], [ 67.811332234215158, 26.74084618810182 ], [ 67.8113495181057, 26.740580870350016 ] ] ] } },
{ "type": "Feature", "properties": { "Rank": 11, "Cluster_ID": "Village_Cluster_10", "Priority_Tier": "LOW", "Priority_Score": 8.2, "Estimated_Population": 154, "Trapped_Nodes": 1, "Dist_to_Hub_km": 3.76, "Nearest_Hub": "Relief_Hub_65", "Centroid_Lat": 26.778333, "Centroid_Lon": 67.808333, "Recommended_Action": "Road detour possible / Monitor flood levels" }, "geometry": { "type": "Polygon", "coordinates": [ [ [ 67.811350515720505, 26.778358681104876 ], [ 67.811338751765021, 26.77809312111086 ], [ 67.811298044131888, 26.777829874789024 ], [ 67.811228785054411, 26.777571477327466 ], [ 67.81113164171876, 26.777320417200364 ], [ 67.811007549831629, 26.777079112203864 ], [ 67.810857704602512, 26.776849886173409 ], [ 67.810683549228017, 26.776634946606318 ], [ 67.810486760988937, 26.776436363405239 ], [ 67.81026923509458, 26.776256048947058 ], [ 67.810033066429625, 26.776095739669056 ], [ 67.809780529379523, 26.775956979349498 ], [ 67.809514055928858, 26.775841104243554 ], [ 67.809236212243192, 26.775749230217624 ], [ 67.808949673960157, 26.775682242005782 ], [ 67.808657200427248, 26.775640784691738 ], [ 67.80836160813449, 26.775625257498184 ], [ 67.808065743597382, 26.77563580994342 ], [ 67.807772455951095, 26.775672340402011 ], [ 67.807484569519474, 26.77573449708353 ], [ 67.807204856622818, 26.77582168141976 ], [ 67.806936010885963, 26.775933053827956 ], [ 67.806680621303499, 26.776067541794518 ], [ 67.806441147311574, 26.776223850201468 ], [ 67.80621989510621, 26.776400473796247 ], [ 67.806018995436077, 26.776595711684976 ], [ 67.805840383083364, 26.776807683709574 ], [ 67.805685778230497, 26.777034348551329 ], [ 67.805556669891985, 26.777273523386466 ], [ 67.805454301571061, 26.77752290490481 ], [ 67.805379659279581, 26.777780091489063 ], [ 67.805333462036401, 26.778042606341266 ], [ 67.805316154936236, 26.778307921333798 ], [ 67.805327904855815, 26.778573481355345 ], [ 67.805368598839095, 26.778836728917362 ], [ 67.805437845177337, 26.779095128784078 ], [ 67.80553497717392, 26.779346192388896 ], [ 67.805659059557911, 26.779587501802009 ], [ 67.805808897485008, 26.779816733018247 ], [ 67.805983048039252, 26.780031678341022 ], [ 67.806179834125047, 26.780230267646484 ], [ 67.806397360615847, 26.780410588323157 ], [ 67.806633532604053, 26.780570903694791 ], [ 67.8068860755765, 26.780709669748944 ], [ 67.807152557321032, 26.780825550010078 ], [ 67.807430411353323, 26.780917428413673 ], [ 67.807716961638164, 26.780984420057422 ], [ 67.808009448366803, 26.781025879725735 ], [ 67.808305054542146, 26.781041408105445 ], [ 67.808600933115144, 26.781030855632672 ], [ 67.808894234411298, 26.780994323933907 ], [ 67.809182133582155, 26.780932164847229 ], [ 67.80946185781788, 26.780844977033286 ], [ 67.809730713057874, 26.780733600208475 ], [ 67.809986109942344, 26.780599107056126 ], [ 67.810225588754548, 26.780442792893496 ], [ 67.810446843113198, 26.780266163194337 ], [ 67.810647742186887, 26.78007091908712 ], [ 67.810826351216335, 26.779858940968882 ], [ 67.810980950146842, 26.779632270392529 ], [ 67.811110050191516, 26.779393090402206 ], [ 67.811212408165801, 26.779143704506197 ], [ 67.811287038455475, 26.778886514490033 ], [ 67.81133322250291, 26.778623997283564 ], [ 67.811350515720505, 26.778358681104876 ] ] ] } }
]
}
