{
  "type": "FeatureCollection",
  "features": [
    {
      "type": "Feature",
      "geometry": {
        "type": "Polygon",
        "coordinates": [
          [
            [
              68.11824730471436,
              26.809673732440668
            ],
            [
              68.1182348244219,
              26.809408179191244
            ],
            [
              68.11819339655678,
              26.809145002293707
            ],
            [
              68.11812342028803,
              26.808886736265467
            ],
            [
              68.11802556970783,
              26.80863586831292
            ],
            [
              68.11790078733243,
              26.80839481437972
            ],
            [
              68.1177502750192,
              26.80816589588191
            ],
            [
              68.1175754823867,
              26.807951317353943
            ],
            [
              68.11737809285029,
              26.807753145220676
            ],
            [
              68.11716000740724,
              26.807573287899803
            ],
            [
              68.11692332632802,
              26.80741347742617
            ],
            [
              68.1166703289301,
              26.807275252774744
            ],
            [
              68.11640345162867,
              26.807159945042773
            ],
            [
              68.11612526447614,
              26.807068664633793
            ],
            [
              68.11583844641572,
              26.807002290566565
            ],
            [
              68.11554575948763,
              26.806961462012083
            ],
            [
              68.11525002223577,
              26.80694657213975
            ],
            [
              68.11495408257097,
              26.806957764332232
            ],
            [
              68.11466079035182,
              26.80699493080515
            ],
            [
              68.11437296994663,
              26.807057713645026
            ],
            [
              68.11409339304082,
              26.807145508255385
            ],
            [
              68.11382475195113,
              26.807257469177966
            ],
            [
              68.11356963370322,
              26.807392518232962
            ],
            [
              68.11333049512251,
              26.80754935489997
            ],
            [
              68.11310963917747,
              26.8077264688398
            ],
            [
              68.1129091928034,
              26.807922154436632
            ],
            [
              68.11273108641994,
              26.80813452722072
            ],
            [
              68.11257703533963,
              26.80836154201331
            ],
            [
              68.11244852324656,
              26.808601012619558
            ],
            [
              68.11234678790433,
              26.80885063287962
            ],
            [
              68.11227280923102,
              26.809107998875426
            ],
            [
              68.11222729985617,
              26.809370632079357
            ],
            [
              68.1122106982512,
              26.809636003221996
            ],
            [
              68.1122231644992,
              26.809901556649137
            ],
            [
              68.11226457874564,
              26.810164734933583
            ],
            [
              68.1123345423448,
              26.810423003504628
            ],
            [
              68.11243238169143,
              26.81067387505815
            ],
            [
              68.11255715470092,
              26.8109149335121
            ],
            [
              68.11270765987592,
              26.811143857276726
            ],
            [
              68.1128824478721,
              26.811358441615166
            ],
            [
              68.11307983545231,
              26.811556619879273
            ],
            [
              68.11329792169447,
              26.811736483415732
            ],
            [
              68.11353460629735,
              26.81189629995085
            ],
            [
              68.11378760980811,
              26.81203453027672
            ],
            [
              68.11405449557664,
              26.812149843078025
            ],
            [
              68.11433269322515,
              26.812241127756423
            ],
            [
              68.11461952340704,
              26.81230750512907
            ],
            [
              68.11491222361632,
              26.812348335897966
            ],
            [
              68.11520797479868,
              26.812363226808593
            ],
            [
              68.11550392850792,
              26.812352034438383
            ],
            [
              68.11579723434578,
              26.812314866578557
            ],
            [
              68.11608506742054,
              26.81225208119588
            ],
            [
              68.11636465555992,
              26.81216428298455
            ],
            [
              68.11663330601552,
              26.81205231754121
            ],
            [
              68.11688843140168,
              26.8119172632194
            ],
            [
              68.1171275746187,
              26.811760420741916
            ],
            [
              68.11734843251993,
              26.811583300671263
            ],
            [
              68.11754887809491,
              26.81138760885883
            ],
            [
              68.11772698095469,
              26.811175230013262
            ],
            [
              68.11788102592216,
              26.81094820954623
            ],
            [
              68.11800952954812,
              26.810708733870648
            ],
            [
              68.11811125439438,
              26.810459109341163
            ],
            [
              68.11818522094622,
              26.810201740039936
            ],
            [
              68.11823071703988,
              26.80993910462159
            ],
            [
              68.11824730471436,
              26.809673732440668
            ]
          ]
        ]
      },
      "properties": {
        "cluster_id": "Isolated_Junction_01",
        "rank": 1,
        "Rank": 1,
        "estimated_population": 27.4,
        "population": 27.4,
        "trapped_nodes": 1,
        "radius_m": 50.0,
        "dist_to_hub_km": 1.94,
        "nearest_hub": "Relief_Hub_9777610665",
        "critical_access_obstacles": "Flooded residential access road on Access Road (38% flooded)",
        "has_bridge_cut": false,
        "has_highway_cut": false,
        "center_lon": 68.115229,
        "center_lat": 26.809655
      }
    },
    {
      "type": "Feature",
      "geometry": {
        "type": "Polygon",
        "coordinates": [
          [
            [
              68.09902330444653,
              26.685232359846882
            ],
            [
              68.09901087351815,
              26.68496680175241
            ],
            [
              68.09896952632303,
              26.684703616901924
            ],
            [
              68.09889966125212,
              26.68444533988969
            ],
            [
              68.09880195132554,
              26.684194458028223
            ],
            [
              68.09867733770413,
              26.683953387395537
            ],
            [
              68.09852702061931,
              26.683724449568974
            ],
            [
              68.098352447809,
              26.6835098492696
            ],
            [
              68.09815530057134,
              26.683311653132453
            ],
            [
              68.0979374775701,
              26.683131769806906
            ],
            [
              68.09770107654863,
              26.682971931578688
            ],
            [
              68.09744837412778,
              26.682833677690507
            ],
            [
              68.09718180388272,
              26.68271833952154
            ],
            [
              68.09690393290967,
              26.682627027768717
            ],
            [
              68.09661743710801,
              26.682560621752902
            ],
            [
              68.09632507541559,
              26.68251976095286
            ],
            [
              68.09602966324547,
              26.682504838848565
            ],
            [
              68.09573404537909,
              26.68251599913302
            ],
            [
              68.09544106857719,
              26.682553134328945
            ],
            [
              68.09515355417169,
              26.68261588682383
            ],
            [
              68.09487427090214,
              26.68270365231309
            ],
            [
              68.09460590825832,
              26.682815585618506
            ],
            [
              68.09435105058502,
              26.682950608825784
            ],
            [
              68.09411215219868,
              26.68310742166296
            ],
            [
              68.0938915137548,
              26.68328451401984
            ],
            [
              68.09369126009399,
              26.68348018048797
            ],
            [
              68.0935133197797,
              26.683692536781333
            ],
            [
              68.09335940652458,
              26.683919537879575
            ],
            [
              68.09323100268466,
              26.684158997719376
            ],
            [
              68.09312934498004,
              26.684408610244283
            ],
            [
              68.09305541257999,
              26.684665971610503
            ],
            [
              68.09300991766722,
              26.684928603334892
            ],
            [
              68.09299329857251,
              26.685193976162257
            ],
            [
              68.09300571554614,
              26.68545953442226
            ],
            [
              68.09304704920677,
              26.685722720641326
            ],
            [
              68.09311690168359,
              26.685981000172603
            ],
            [
              68.09321460044039,
              26.68623188560676
            ],
            [
              68.09333920474565,
              26.686472960728484
            ],
            [
              68.09348951472595,
              26.686701903787934
            ],
            [
              68.09366408291638,
              26.68691650986294
            ],
            [
              68.09386122819635,
              26.68711471209651
            ],
            [
              68.0940790519773,
              26.687294601605007
            ],
            [
              68.09431545648594,
              26.687454445865047
            ],
            [
              68.09456816496741,
              26.687592705402178
            ],
            [
              68.09483474361365,
              26.68770804862011
            ],
            [
              68.09511262500553,
              26.687799364627875
            ],
            [
              68.09539913284334,
              26.68786577394111
            ],
            [
              68.09569150772664,
              26.687906636954324
            ],
            [
              68.09598693373549,
              26.687921560102495
            ],
            [
              68.0962825655566,
              26.68791039965252
            ],
            [
              68.096575555893,
              26.687873263088004
            ],
            [
              68.09686308289263,
              26.687810508074087
            ],
            [
              68.0971423773319,
              26.687722739012138
            ],
            [
              68.0974107492919,
              26.687610801217673
            ],
            [
              68.09766561406971,
              26.687475772777507
            ],
            [
              68.09790451707593,
              26.6873189541647
            ],
            [
              68.09812515747751,
              26.6871418557114
            ],
            [
              68.0983254103586,
              26.686946183060332
            ],
            [
              68.09850334718573,
              26.68673382073513
            ],
            [
              68.09865725438021,
              26.68650681398795
            ],
            [
              68.09878564981898,
              26.686267349099186
            ],
            [
              68.09888729710475,
              26.686017732319335
            ],
            [
              68.09896121746867,
              26.685760367655693
            ],
            [
              68.09900669919055,
              26.68549773371813
            ],
            [
              68.09902330444653,
              26.685232359846882
            ]
          ]
        ]
      },
      "properties": {
        "cluster_id": "Isolated_Junction_02",
        "rank": 1,
        "Rank": 1,
        "estimated_population": 27.1,
        "population": 27.1,
        "trapped_nodes": 1,
        "radius_m": 50.0,
        "dist_to_hub_km": 7.66,
        "nearest_hub": "Relief_Hub_10056715748",
        "critical_access_obstacles": "Flooded residential access road on Access Road (78% flooded)",
        "has_bridge_cut": false,
        "has_highway_cut": false,
        "center_lon": 68.096008,
        "center_lat": 26.685213
      }
    },
    {
      "type": "Feature",
      "geometry": {
        "type": "Polygon",
        "coordinates": [
          [
            [
              68.01030714993296,
              26.712695863114277
            ],
            [
              68.01029492412414,
              26.71243030369385
            ],
            [
              68.01025377385281,
              26.712167099201576
            ],
            [
              68.01018409561395,
              26.71190878442146
            ],
            [
              68.01008656062903,
              26.711657847030256
            ],
            [
              68.00996210837485,
              26.711416703641184
            ],
            [
              68.00981193752956,
              26.711187676532585
            ],
            [
              68.00963749442364,
              26.71097297128557
            ],
            [
              68.00944045910693,
              26.710774655545983
            ],
            [
              68.00922272916625,
              26.710594639114984
            ],
            [
              68.00898640144953,
              26.71043465556005
            ],
            [
              68.0087337518724,
              26.710296245523182
            ],
            [
              68.00846721350169,
              26.71018074188697
            ],
            [
              68.00818935312716,
              26.710089256941437
            ],
            [
              68.00790284654644,
              26.710022671674814
            ],
            [
              68.00761045280139,
              26.709981627291583
            ],
            [
              68.00731498761367,
              26.70996651903908
            ],
            [
              68.00701929627519,
              26.70997749240239
            ],
            [
              68.00672622625389,
              26.710014441703777
            ],
            [
              68.00643859977893,
              26.710077011120436
            ],
            [
              68.00615918666855,
              26.71016459811039
            ],
            [
              68.0058906776622,
              26.71027635921407
            ],
            [
              68.00563565851341,
              26.710411218175242
            ],
            [
              68.00539658509285,
              26.71056787630352
            ],
            [
              68.0051757597408,
              26.710744824978526
            ],
            [
              68.00497530909703,
              26.7109403601756
            ],
            [
              68.00479716362126,
              26.71115259887307
            ],
            [
              68.0046430390012,
              26.71137949718338
            ],
            [
              68.00451441962782,
              26.71161887003349
            ],
            [
              68.00441254429646,
              26.711868412205156
            ],
            [
              68.00433839427191,
              26.712125720532693
            ],
            [
              68.00429268383257,
              26.71238831704433
            ],
            [
              68.00427585338488,
              26.712653672824622
            ],
            [
              68.00428806521472,
              26.71291923236803
            ],
            [
              68.00432920191678,
              26.713182438189236
            ],
            [
              68.00439886751752,
              26.71344075545317
            ],
            [
              68.00449639128115,
              26.71369169638763
            ],
            [
              68.00462083416213,
              26.71393284424324
            ],
            [
              68.00477099784246,
              26.714161876569992
            ],
            [
              68.00494543626705,
              26.71437658758625
            ],
            [
              68.00514246956595,
              26.714574909424474
            ],
            [
              68.00536020022986,
              26.714754932049125
            ],
            [
              68.0055965313831,
              26.71491492165471
            ],
            [
              68.00584918697797,
              26.715053337366715
            ],
            [
              68.00611573371634,
              26.715168846084442
            ],
            [
              68.00639360448692,
              26.715260335322597
            ],
            [
              68.00668012309255,
              26.715326923927968
            ],
            [
              68.00697253002927,
              26.7153679705678
            ],
            [
              68.00726800906847,
              26.715383079908012
            ],
            [
              68.00756371438594,
              26.71537210642173
            ],
            [
              68.00785679797652,
              26.7153351557914
            ],
            [
              68.0081444370896,
              26.715272583890933
            ],
            [
              68.00842386142125,
              26.715184993357717
            ],
            [
              68.00869237980082,
              26.715073227787496
            ],
            [
              68.00894740611454,
              26.71493836360817
            ],
            [
              68.00918648421646,
              26.71478169971065
            ],
            [
              68.00940731158632,
              26.714604744937002
            ],
            [
              68.00960776150681,
              26.71440920354628
            ],
            [
              68.00978590354607,
              26.714196958798155
            ],
            [
              68.00994002214843,
              26.71397005481271
            ],
            [
              68.01006863315413,
              26.71373067688109
            ],
            [
              68.01017049808945,
              26.713481130416803
            ],
            [
              68.01024463608908,
              26.71322381875051
            ],
            [
              68.01029033333675,
              26.71296121998228
            ],
            [
              68.01030714993296,
              26.712695863114277
            ]
          ]
        ]
      },
      "properties": {
        "cluster_id": "Isolated_Junction_03",
        "rank": 1,
        "Rank": 1,
        "estimated_population": 26.4,
        "population": 26.4,
        "trapped_nodes": 1,
        "radius_m": 50.0,
        "dist_to_hub_km": 4.92,
        "nearest_hub": "Relief_Hub_12049443393",
        "critical_access_obstacles": "Flooded residential access road on Access Road (48% flooded)",
        "has_bridge_cut": false,
        "has_highway_cut": false,
        "center_lon": 68.007291,
        "center_lat": 26.712675
      }
    }
  ]
}