{
"type": "FeatureCollection",
"name": "rescue_manifest",
"crs": { "type": "name", "properties": { "name": "urn:ogc:def:crs:OGC:1.3:CRS84" } },
"features": [
{ "type": "Feature", "properties": { "Rank": 1, "Cluster_ID": "Isolated_Junction_02", "Priority_Tier": "MEDIUM", "Priority_Score": 40.9, "Estimated_Population": 27, "Trapped_Nodes": 1, "Dist_to_Hub_km": 7.66, "Nearest_Hub": "Relief_Hub_10056715748", "Centroid_Lat": 26.685213, "Centroid_Lon": 68.096008, "Recommended_Action": "Shallow-draft boat evacuation / monitoring" }, "geometry": { "type": "Polygon", "coordinates": [ [ [ 68.099023304446533, 26.685232359846882 ], [ 68.099010873518154, 26.68496680175241 ], [ 68.098969526323032, 26.684703616901924 ], [ 68.098899661252119, 26.684445339889692 ], [ 68.098801951325541, 26.684194458028223 ], [ 68.098677337704132, 26.683953387395537 ], [ 68.098527020619315, 26.683724449568974 ], [ 68.098352447809006, 26.683509849269601 ], [ 68.098155300571335, 26.683311653132453 ], [ 68.097937477570099, 26.683131769806906 ], [ 68.097701076548631, 26.682971931578688 ], [ 68.097448374127779, 26.682833677690507 ], [ 68.097181803882719, 26.682718339521539 ], [ 68.096903932909669, 26.682627027768717 ], [ 68.096617437108009, 26.682560621752902 ], [ 68.096325075415592, 26.682519760952861 ], [ 68.096029663245474, 26.682504838848565 ], [ 68.095734045379089, 26.68251599913302 ], [ 68.095441068577188, 26.682553134328945 ], [ 68.095153554171688, 26.682615886823829 ], [ 68.094874270902139, 26.682703652313091 ], [ 68.094605908258316, 26.682815585618506 ], [ 68.094351050585018, 26.682950608825784 ], [ 68.094112152198676, 26.68310742166296 ], [ 68.093891513754798, 26.683284514019839 ], [ 68.093691260093991, 26.683480180487969 ], [ 68.093513319779703, 26.683692536781333 ], [ 68.093359406524584, 26.683919537879575 ], [ 68.093231002684661, 26.684158997719376 ], [ 68.093129344980042, 26.684408610244283 ], [ 68.093055412579986, 26.684665971610503 ], [ 68.093009917667217, 26.684928603334892 ], [ 68.092993298572509, 26.685193976162257 ], [ 68.093005715546141, 26.685459534422261 ], [ 68.093047049206774, 26.685722720641326 ], [ 68.093116901683587, 26.685981000172603 ], [ 68.09321460044039, 26.686231885606759 ], [ 68.093339204745646, 26.686472960728484 ], [ 68.093489514725945, 26.686701903787934 ], [ 68.093664082916376, 26.68691650986294 ], [ 68.093861228196346, 26.687114712096509 ], [ 68.094079051977303, 26.687294601605007 ], [ 68.094315456485944, 26.687454445865047 ], [ 68.094568164967413, 26.687592705402178 ], [ 68.094834743613646, 26.687708048620109 ], [ 68.095112625005527, 26.687799364627875 ], [ 68.09539913284334, 26.687865773941109 ], [ 68.095691507726642, 26.687906636954324 ], [ 68.095986933735489, 26.687921560102495 ], [ 68.096282565556606, 26.68791039965252 ], [ 68.096575555892997, 26.687873263088004 ], [ 68.096863082892625, 26.687810508074087 ], [ 68.097142377331906, 26.687722739012138 ], [ 68.097410749291896, 26.687610801217673 ], [ 68.097665614069712, 26.687475772777507 ], [ 68.097904517075932, 26.687318954164699 ], [ 68.098125157477511, 26.687141855711399 ], [ 68.098325410358598, 26.686946183060332 ], [ 68.098503347185726, 26.686733820735132 ], [ 68.098657254380214, 26.68650681398795 ], [ 68.098785649818979, 26.686267349099186 ], [ 68.098887297104753, 26.686017732319335 ], [ 68.09896121746867, 26.685760367655693 ], [ 68.099006699190554, 26.68549773371813 ], [ 68.099023304446533, 26.685232359846882 ] ] ] } },
{ "type": "Feature", "properties": { "Rank": 2, "Cluster_ID": "Isolated_Junction_01", "Priority_Tier": "MEDIUM", "Priority_Score": 30.0, "Estimated_Population": 27, "Trapped_Nodes": 1, "Dist_to_Hub_km": 1.94, "Nearest_Hub": "Relief_Hub_9777610665", "Centroid_Lat": 26.809655, "Centroid_Lon": 68.115229, "Recommended_Action": "Road detour possible / High-clearance vehicle rescue" }, "geometry": { "type": "Polygon", "coordinates": [ [ [ 68.118247304714359, 26.809673732440668 ], [ 68.118234824421904, 26.809408179191244 ], [ 68.118193396556777, 26.809145002293707 ], [ 68.118123420288029, 26.808886736265467 ], [ 68.118025569707825, 26.808635868312919 ], [ 68.117900787332431, 26.808394814379721 ], [ 68.117750275019205, 26.80816589588191 ], [ 68.117575482386698, 26.807951317353943 ], [ 68.117378092850288, 26.807753145220676 ], [ 68.117160007407236, 26.807573287899803 ], [ 68.11692332632802, 26.80741347742617 ], [ 68.116670328930098, 26.807275252774744 ], [ 68.11640345162867, 26.807159945042773 ], [ 68.116125264476139, 26.807068664633793 ], [ 68.115838446415722, 26.807002290566565 ], [ 68.115545759487631, 26.806961462012083 ], [ 68.11525002223577, 26.806946572139751 ], [ 68.114954082570975, 26.806957764332232 ], [ 68.11466079035182, 26.80699493080515 ], [ 68.114372969946629, 26.807057713645026 ], [ 68.114093393040818, 26.807145508255385 ], [ 68.113824751951128, 26.807257469177966 ], [ 68.113569633703221, 26.807392518232962 ], [ 68.113330495122511, 26.807549354899969 ], [ 68.113109639177466, 26.8077264688398 ], [ 68.1129091928034, 26.807922154436632 ], [ 68.112731086419942, 26.808134527220719 ], [ 68.112577035339626, 26.808361542013309 ], [ 68.112448523246556, 26.808601012619558 ], [ 68.112346787904329, 26.808850632879619 ], [ 68.112272809231015, 26.809107998875426 ], [ 68.112227299856173, 26.809370632079357 ], [ 68.112210698251204, 26.809636003221996 ], [ 68.112223164499198, 26.809901556649137 ], [ 68.112264578745638, 26.810164734933583 ], [ 68.112334542344797, 26.810423003504628 ], [ 68.112432381691434, 26.81067387505815 ], [ 68.112557154700923, 26.810914933512102 ], [ 68.112707659875923, 26.811143857276726 ], [ 68.112882447872096, 26.811358441615166 ], [ 68.113079835452311, 26.811556619879273 ], [ 68.113297921694468, 26.811736483415732 ], [ 68.11353460629735, 26.811896299950849 ], [ 68.113787609808114, 26.812034530276719 ], [ 68.114054495576639, 26.812149843078025 ], [ 68.114332693225151, 26.812241127756423 ], [ 68.114619523407043, 26.81230750512907 ], [ 68.114912223616315, 26.812348335897966 ], [ 68.115207974798679, 26.812363226808593 ], [ 68.11550392850792, 26.812352034438383 ], [ 68.115797234345777, 26.812314866578557 ], [ 68.116085067420542, 26.812252081195879 ], [ 68.11636465555992, 26.812164282984551 ], [ 68.116633306015515, 26.812052317541209 ], [ 68.116888431401676, 26.811917263219399 ], [ 68.117127574618706, 26.811760420741916 ], [ 68.117348432519933, 26.811583300671263 ], [ 68.117548878094908, 26.81138760885883 ], [ 68.117726980954686, 26.811175230013262 ], [ 68.117881025922159, 26.810948209546229 ], [ 68.118009529548118, 26.810708733870648 ], [ 68.118111254394378, 26.810459109341163 ], [ 68.118185220946216, 26.810201740039936 ], [ 68.118230717039879, 26.809939104621591 ], [ 68.118247304714359, 26.809673732440668 ] ] ] } },
{ "type": "Feature", "properties": { "Rank": 3, "Cluster_ID": "Isolated_Junction_03", "Priority_Tier": "LOW", "Priority_Score": 13.7, "Estimated_Population": 26, "Trapped_Nodes": 1, "Dist_to_Hub_km": 4.92, "Nearest_Hub": "Relief_Hub_12049443393", "Centroid_Lat": 26.712675, "Centroid_Lon": 68.007291, "Recommended_Action": "Road detour possible / Monitor flood levels" }, "geometry": { "type": "Polygon", "coordinates": [ [ [ 68.010307149932956, 26.712695863114277 ], [ 68.010294924124139, 26.71243030369385 ], [ 68.01025377385281, 26.712167099201576 ], [ 68.010184095613951, 26.71190878442146 ], [ 68.010086560629034, 26.711657847030256 ], [ 68.00996210837485, 26.711416703641184 ], [ 68.009811937529562, 26.711187676532585 ], [ 68.009637494423643, 26.710972971285571 ], [ 68.009440459106926, 26.710774655545983 ], [ 68.009222729166254, 26.710594639114984 ], [ 68.008986401449533, 26.71043465556005 ], [ 68.008733751872398, 26.710296245523182 ], [ 68.008467213501689, 26.710180741886969 ], [ 68.008189353127165, 26.710089256941437 ], [ 68.007902846546443, 26.710022671674814 ], [ 68.007610452801387, 26.709981627291583 ], [ 68.007314987613668, 26.709966519039082 ], [ 68.007019296275189, 26.709977492402391 ], [ 68.006726226253889, 26.710014441703777 ], [ 68.006438599778932, 26.710077011120436 ], [ 68.006159186668555, 26.710164598110389 ], [ 68.005890677662194, 26.71027635921407 ], [ 68.005635658513413, 26.710411218175242 ], [ 68.005396585092853, 26.710567876303521 ], [ 68.005175759740794, 26.710744824978526 ], [ 68.004975309097034, 26.710940360175599 ], [ 68.004797163621262, 26.71115259887307 ], [ 68.004643039001195, 26.71137949718338 ], [ 68.004514419627824, 26.71161887003349 ], [ 68.004412544296457, 26.711868412205156 ], [ 68.004338394271912, 26.712125720532693 ], [ 68.004292683832574, 26.712388317044329 ], [ 68.004275853384883, 26.712653672824622 ], [ 68.004288065214723, 26.71291923236803 ], [ 68.004329201916775, 26.713182438189236 ], [ 68.004398867517523, 26.713440755453171 ], [ 68.004496391281151, 26.713691696387631 ], [ 68.004620834162125, 26.713932844243239 ], [ 68.004770997842456, 26.714161876569992 ], [ 68.00494543626705, 26.714376587586251 ], [ 68.005142469565953, 26.714574909424474 ], [ 68.005360200229859, 26.714754932049125 ], [ 68.005596531383105, 26.71491492165471 ], [ 68.005849186977969, 26.715053337366715 ], [ 68.006115733716342, 26.715168846084442 ], [ 68.006393604486917, 26.715260335322597 ], [ 68.006680123092551, 26.715326923927968 ], [ 68.006972530029273, 26.715367970567801 ], [ 68.007268009068468, 26.715383079908012 ], [ 68.007563714385938, 26.715372106421729 ], [ 68.007856797976515, 26.715335155791401 ], [ 68.008144437089598, 26.715272583890933 ], [ 68.00842386142125, 26.715184993357717 ], [ 68.00869237980082, 26.715073227787496 ], [ 68.008947406114544, 26.714938363608169 ], [ 68.009186484216457, 26.714781699710649 ], [ 68.009407311586315, 26.714604744937002 ], [ 68.009607761506814, 26.714409203546278 ], [ 68.009785903546074, 26.714196958798155 ], [ 68.009940022148427, 26.713970054812709 ], [ 68.010068633154134, 26.713730676881092 ], [ 68.010170498089451, 26.713481130416803 ], [ 68.010244636089084, 26.71322381875051 ], [ 68.010290333336755, 26.712961219982279 ], [ 68.010307149932956, 26.712695863114277 ] ] ] } }
]
}
